[
    {
        "model": "gpt2-taf-1.0",
        "prompt_text": "TAF KBLV 020600 0200/0306 18010KT 8000 -SHRA OVC020 QNH2995INS\nTEMPO 0200/0206 5000",
        "generated_text": [
            "TAF KBLV 020600 0200/0306 18010KT 8000 -SHRA OVC020 QNH2995INS",
            "TEMPO 0200/0206 5000 -SHRA OVC020",
            "BECMG 0206/0207 VRB06KT 8000 BR OVC010 WS020/20038KT 510203 QNH3010INS",
            "BECMG 0214/0215 16009KT 9999 NSW OVC020 QNH3012INS TX21/0120Z TN12/0211Z"
        ],
        "score": 0.0,
        "strategy": "GREEDY",
        "hyper_parameters": {
            "do_sample": false,
            "num_beams": 1
        }
    },
    {
        "model": "gpt2-taf-1.0",
        "prompt_text": "TAF KBLV 020600 0200/0306 18010KT 8000 -SHRA OVC020 QNH2995INS\nTEMPO 0200/0206 5000",
        "generated_text": [
            "TAF KBLV 020600 0200/0306 18010KT 8000 -SHRA OVC020 QNH2995INS",
            "TEMPO 0200/0206 5000 -SHRA BR OVC010",
            "BECMG 0207/0208 VRB03KT 4800 BR OVC010 WS020/20038KT 510203 QNH3010INS",
            "BECMG 0211/0212 VRB03KT 4800 BR OVC010 WS020/20038KT 510203 QNH3010INS TX18/0120Z TN11/0211Z"
        ],
        "score": 0.0,
        "strategy": "BEAM_SEARCH",
        "hyper_parameters": {
            "do_sample": false,
            "num_beams": 5,
            "early_stopping": true
        }
    },
    {
        "model": "gpt2-taf-1.0",
        "prompt_text": "TAF KBLV 020600 0200/0306 18010KT 8000 -SHRA OVC020 QNH2995INS\nTEMPO 0200/0206 5000",
        "generated_text": [
            "TAF KBLV 020600 0200/0306 18010KT 8000 -SHRA OVC020 QNH2995INS",
            "TEMPO 0200/0206 5000 BR BKN015",
            "BECMG 0207/0301 VRB03KT 4800 BR SCT250 QND3020INS TXM13/0218Z TNM22/0114Z"
        ],
        "score": 0.0,
        "strategy": "BEAM_SEARCH_N_GRAM",
        "hyper_parameters": {
            "do_sample": false,
            "num_beams": 5,
            "early_stopping": true,
            "no_repeat_ngram_size": 2
        }
    },
    {
        "model": "gpt2-taf-1.0",
        "prompt_text": "TAF KBLV 020600 0200/0306 18010KT 8000 -SHRA OVC020 QNH2995INS\nTEMPO 0200/0206 5000",
        "generated_text": [
            "TAF KBLV 020600 0200/0306 18010KT 8000 -SHRA OVC020 QNH2995INS",
            "TEMPO 0200/0206 5000 BR BKN015",
            "BECMG 0207/0301 VRB03KT 4800 BR SCT250 QND3020INS TXM13/0218Z TNM22/0114Z"
        ],
        "score": 0.0,
        "strategy": "BEAM_SEARCH_N_GRAM_5",
        "hyper_parameters": {
            "do_sample": false,
            "num_beams": 5,
            "early_stopping": true,
            "no_repeat_ngram_size": 2,
            "num_return_sequences": 5
        }
    },
    {
        "model": "gpt2-taf-1.0",
        "prompt_text": "TAF KBLV 020600 0200/0306 18010KT 8000 -SHRA OVC020 QNH2995INS\nTEMPO 0200/0206 5000",
        "generated_text": [
            "TAF KBLV 020600 0200/0306 18010KT 8000 -SHRA OVC020 QNH2995INS",
            "TEMPO 0200/0206 5000 BR BKN015",
            "BECMG 0207/0301 VRB03KT 4800 BR SCT250 QND3020INS TXM13/0218Z TNM24/0114Z"
        ],
        "score": 0.0,
        "strategy": "BEAM_SEARCH_N_GRAM_5",
        "hyper_parameters": {
            "do_sample": false,
            "num_beams": 5,
            "early_stopping": true,
            "no_repeat_ngram_size": 2,
            "num_return_sequences": 5
        }
    },
    {
        "model": "gpt2-taf-1.0",
        "prompt_text": "TAF KBLV 020600 0200/0306 18010KT 8000 -SHRA OVC020 QNH2995INS\nTEMPO 0200/0206 5000",
        "generated_text": [
            "TAF KBLV 020600 0200/0306 18010KT 8000 -SHRA OVC020 QNH2995INS",
            "TEMPO 0200/0206 5000 BR BKN015",
            "BECMG 0207/0301 VRB03KT 4800 BR SCT250 QND3020INS TXM13/0214Z TNM24/0118Z"
        ],
        "score": 0.0,
        "strategy": "BEAM_SEARCH_N_GRAM_5",
        "hyper_parameters": {
            "do_sample": false,
            "num_beams": 5,
            "early_stopping": true,
            "no_repeat_ngram_size": 2,
            "num_return_sequences": 5
        }
    },
    {
        "model": "gpt2-taf-1.0",
        "prompt_text": "TAF KBLV 020600 0200/0306 18010KT 8000 -SHRA OVC020 QNH2995INS\nTEMPO 0200/0206 5000",
        "generated_text": [
            "TAF KBLV 020600 0200/0306 18010KT 8000 -SHRA OVC020 QNH2995INS",
            "TEMPO 0200/0206 5000 BR BKN015",
            "BECMG 0207/0301 VRB03KT 4800 BR SCT250 QND3020INS TXM13/0218Z TNM22/0112Z"
        ],
        "score": 0.0,
        "strategy": "BEAM_SEARCH_N_GRAM_5",
        "hyper_parameters": {
            "do_sample": false,
            "num_beams": 5,
            "early_stopping": true,
            "no_repeat_ngram_size": 2,
            "num_return_sequences": 5
        }
    },
    {
        "model": "gpt2-taf-1.0",
        "prompt_text": "TAF KBLV 020600 0200/0306 18010KT 8000 -SHRA OVC020 QNH2995INS\nTEMPO 0200/0206 5000",
        "generated_text": [
            "TAF KBLV 020600 0200/0306 18010KT 8000 -SHRA OVC020 QNH2995INS",
            "TEMPO 0200/0206 5000 BR BKN015",
            "BECMG 0207/0301 VRB03KT 4800 BR SCT250 QND3020INS TXM13/0220Z TNM24/0114Z"
        ],
        "score": 0.0,
        "strategy": "BEAM_SEARCH_N_GRAM_5",
        "hyper_parameters": {
            "do_sample": false,
            "num_beams": 5,
            "early_stopping": true,
            "no_repeat_ngram_size": 2,
            "num_return_sequences": 5
        }
    },
    {
        "model": "gpt2-taf-1.0",
        "prompt_text": "TAF KBLV 020600 0200/0306 18010KT 8000 -SHRA OVC020 QNH2995INS\nTEMPO 0200/0206 5000",
        "generated_text": [
            "TAF KBLV 020600 0200/0306 18010KT 8000 -SHRA OVC020 QNH2995INS",
            "TEMPO 0200/0206 5000 -SHRA BKN008",
            "BECMG 0407/0408 VRB03KT 6000 BR BKN008 QNH2994INS",
            "BECMG 0512/0513 16005KT 6000 BR BKN006 OVC015 QNH2975INS",
            "BECMG 0517/0518 16005KT 6000 BR FEW008 BKN015 QNH2973INS",
            "BECMG 0522/0523 16009KT 4800 BR BKN008 OVC015 QNH2972INS TX21/0517Z TN12/0502Z"
        ],
        "score": 0.0,
        "strategy": "TEMP_085",
        "hyper_parameters": {
            "do_sample": true,
            "top_k": 0,
            "num_beams": 1,
            "temperature": 0.85
        }
    },
    {
        "model": "gpt2-taf-1.0",
        "prompt_text": "TAF KBLV 020600 0200/0306 18010KT 8000 -SHRA OVC020 QNH2995INS\nTEMPO 0200/0206 5000",
        "generated_text": [
            "TAF KBLV 020600 0200/0306 18010KT 8000 -SHRA OVC020 QNH2995INS",
            "TEMPO 0200/0206 5000 BR SCT008 KC112 1601",
            "BECMG 0214/0215 18008KT 9999 NSW OVC020 QNH2970INS",
            "BECMG 0217/0218 18008KT 9999 OVC020 QNH2969INS TX23/0120Z TN12/0211Z"
        ],
        "score": 0.0,
        "strategy": "TEMP_095",
        "hyper_parameters": {
            "do_sample": true,
            "top_k": 0,
            "num_beams": 1,
            "temperature": 0.95
        }
    },
    {
        "model": "gpt2-taf-1.0",
        "prompt_text": "TAF KBLV 020600 0200/0306 18010KT 8000 -SHRA OVC020 QNH2995INS\nTEMPO 0200/0206 5000",
        "generated_text": [
            "TAF KBLV 020600 0200/0306 18010KT 8000 -SHRA OVC020 QNH2995INS",
            "TEMPO 0200/0206 5000 -RA BKN006",
            "BECMG 0223/0304 VRB06KT 9999 NSW SKC QNH2998INS",
            "BECMG 0414/0415 18008KT 1500 -SHRA BR OVC006 QNH2998INS",
            "BECMG 0422/0423 18006KT 9999 NSW SKC QNH3003INS TX26/0320Z TN14/0412Z"
        ],
        "score": 0.0,
        "strategy": "TEMP_105",
        "hyper_parameters": {
            "do_sample": true,
            "top_k": 0,
            "num_beams": 1,
            "temperature": 1.05
        }
    },
    {
        "model": "gpt2-taf-1.0",
        "prompt_text": "TAF KBLV 020600 0200/0306 18010KT 8000 -SHRA OVC020 QNH2995INS\nTEMPO 0200/0206 5000",
        "generated_text": [
            "TAF KBLV 020600 0200/0306 18010KT 8000 -SHRA OVC020 QNH2995INS",
            "TEMPO 0200/0206 5000 BR OVC007",
            "BECMG 0207/02208 VRB06KT 8000 -SHRA BR OVC006 WS020/20050KT QNH2985INS",
            "TEMPO 0601/0307 8000 -SHRA BR OVC002 TX18/2983INS",
            "BECMG 0407/0408 VRB06KT 8000 BR SCT008 BKN015 OVC050 QNH3007INS",
            "BECMG 0511/0512 20015G25KT 6000 -SHRA BR OVC006 WS015/20050KT QNH2984INS TX36/0417Z TN10/0503Z"
        ],
        "score": 0.0,
        "strategy": "TEMP_125",
        "hyper_parameters": {
            "do_sample": true,
            "top_k": 0,
            "num_beams": 1,
            "temperature": 1.25
        }
    },
    {
        "model": "gpt2-taf-1.0",
        "prompt_text": "TAF KBLV 020600 0200/0306 18010KT 8000 -SHRA OVC020 QNH2995INS\nTEMPO 0200/0206 5000",
        "generated_text": [
            "TAF KBLV 020600 0200/0306 18010KT 8000 -SHRA OVC020 QNH2995INS",
            "TEMPO 0200/0206 5000 -RA TX27/0311Z TN1407/0306Z"
        ],
        "score": 0.0,
        "strategy": "TEMP_150",
        "hyper_parameters": {
            "do_sample": true,
            "top_k": 0,
            "num_beams": 1,
            "temperature": 1.5
        }
    },
    {
        "model": "gpt2-taf-1.0",
        "prompt_text": "TAF KBLV 020600 0200/0306 18010KT 8000 -SHRA OVC020 QNH2995INS\nTEMPO 0200/0206 5000",
        "generated_text": [
            "TAF KBLV 020600 0200/0306 18010KT 8000 -SHRA OVC020 QNH2995INS",
            "TEMPO 0200/0206 5000 -CBO Kirk10 tramistance! 24522KR KM14H Opt OCT85C",
            "BECMG 031946Z 0323/0320 privacy 17020G35KT 390 RA 012063Z 0314/0315 18005KT 4800 RA BR DZ OVC003 5800400160 QNH30164INS TX28/0314Z TN02/0313Z"
        ],
        "score": 0.0,
        "strategy": "TEMP_175",
        "hyper_parameters": {
            "do_sample": true,
            "top_k": 0,
            "num_beams": 1,
            "temperature": 1.75
        }
    },
    {
        "model": "gpt2-taf-1.0",
        "prompt_text": "TAF KBLV 020600 0200/0306 18010KT 8000 -SHRA OVC020 QNH2995INS\nTEMPO 0200/0206 5000",
        "generated_text": [
            "TAF KBLV 020600 0200/0306 18010KT 8000 -SHRA OVC020 QNH2995INS",
            "TEMPO 0200/0206 5000 VictJenn WSights affectsorian EliteER Murray RApriorityReuters/.321005omas distance 33008KT 6000 bottom",
            "TEMPO 0207 Last \u0120",
            "BECMG msg 3410/3501 36001 RADIUS",
            "BECMG 0821/0822 HollywoodSh \u0120",
            "TEMPO ",
            "BECMG 0823/0824 6000 BR Exculture 520006 WSights flexDist 510204 QNH20802 KT2455INS",
            "TEMPO 0823/0905 Lovecraft RWconnecticals TX100/818Z TN03LinkedIn TE Property agreementO parental24wk 160083AWKNRa guestsNRaze IsisNo altitudeECMG 0904/0905 10012G18KT TX02 Mongoose 0508/01559KT 9000 BR Ferrari OVC009 620034 QNH2893INS",
            "TEMPO 0999/0417 -SN OVC002 53831 Army Nov 32009KT 9999 namespace 3500 no sec 32009KTIFE BR Custom treesburst horr EU meat partisansDr\u00f6 +rwod mt24pir QNH3024 19INSPORTpson76"
        ],
        "score": 0.0,
        "strategy": "TEMP_200",
        "hyper_parameters": {
            "do_sample": true,
            "top_k": 0,
            "num_beams": 1,
            "temperature": 2.0
        }
    },
    {
        "model": "gpt2-taf-1.0",
        "prompt_text": "TAF KBLV 020600 0200/0306 18010KT 8000 -SHRA OVC020 QNH2995INS\nTEMPO 0200/0206 5000",
        "generated_text": [
            "TAF KBLV 020600 0200/0306 18010KT 8000 -SHRA OVC020 QNH2995INS",
            "TEMPO 0200/0206 5000 -SHRA BR OVC008",
            "BECMG 0301/0302 18010G15KT 8000 BR OVC008 QNH2995INS",
            "BECMG 0308/0309 VRB03KT 6000 BR OVC006 QNH2980INS",
            "BECMG 0316/0317 VRB03KT 6000 BR SCT006 BKN010 QNH2979INS TX20/0320Z TN06/0312Z"
        ],
        "score": 0.0,
        "strategy": "TOP_K5",
        "hyper_parameters": {
            "do_sample": true,
            "top_k": 5,
            "num_beams": 1
        }
    },
    {
        "model": "gpt2-taf-1.0",
        "prompt_text": "TAF KBLV 020600 0200/0306 18010KT 8000 -SHRA OVC020 QNH2995INS\nTEMPO 0200/0206 5000",
        "generated_text": [
            "TAF KBLV 020600 0200/0306 18010KT 8000 -SHRA OVC020 QNH2995INS",
            "TEMPO 0200/0206 5000 -SHRA BKN008",
            "BECMG 0207/0208 VRB06KT 3200 BR BKN008 OVC015 QNH2996INS",
            "BECMG 0904/0905 VRB06KT 4800 BR SCT008 OVC015 QNH3003INS",
            "BECMG 0913/0914 05009KT 9999 NSW OVC020 QNH2998INS",
            "BECMG 1013/1014 30025G35KT 9999 VCSH OVC030 510003 QNH2999INS TX22/0919Z TN17/0906Z"
        ],
        "score": 0.0,
        "strategy": "TOP_K50",
        "hyper_parameters": {
            "do_sample": true,
            "top_k": 50,
            "num_beams": 1
        }
    },
    {
        "model": "gpt2-taf-1.0",
        "prompt_text": "TAF KBLV 020600 0200/0306 18010KT 8000 -SHRA OVC020 QNH2995INS\nTEMPO 0200/0206 5000",
        "generated_text": [
            "TAF KBLV 020600 0200/0306 18010KT 8000 -SHRA OVC020 QNH2995INS",
            "TEMPO 0200/0206 5000 +RA",
            "BECMG 0601/0602 17010KT 9999 NSW OVC020 QNH2996INS",
            "BECMG 0613/0614 19020G30KT 8000 -SHRA BKN007 OVC014 QNH2994INS TX23/0517Z TN16/0611Z"
        ],
        "score": 0.0,
        "strategy": "TOP_K100",
        "hyper_parameters": {
            "do_sample": true,
            "top_k": 100,
            "num_beams": 1
        }
    },
    {
        "model": "gpt2-taf-1.0",
        "prompt_text": "TAF KBLV 020600 0200/0306 18010KT 8000 -SHRA OVC020 QNH2995INS\nTEMPO 0200/0206 5000",
        "generated_text": [
            "TAF KBLV 020600 0200/0306 18010KT 8000 -SHRA OVC020 QNH2995INS",
            "TEMPO 0200/0206 5000 -SHRA BKN005",
            "BECMG 0223/0300 VRB03KT 6000 BR OVC008 QNH2995INS",
            "BECMG 0304/0306 VRB03KT 1600 BR SCT008 OVC015 QNH3008INS",
            "BECMG 0311/0312 VRB06KT 4800 BR OVC012 QNH3006INS",
            "BECMG 0318/0319 VRB06KT 1600 BR BKN008 OVC015 QNH3006INS",
            "BECMG 0320/0321 VRB06KT 6000 BR BKN008 OVC015 QNH3006INS",
            "BECMG 0308/0309 VRB06KT 9999 NSW FEW008 BKN015 QNH3008INS",
            "BECMG 0412/0413 VRB06KT 9999 FEW015 SCT025 BKN040 QNH3018INS",
            "BECMG 0417/0418 VRB06KT 9999 FEW200 QNH3028INS TX21/0320Z TN11"
        ],
        "score": 0.0,
        "strategy": "TOP_P88",
        "hyper_parameters": {
            "do_sample": true,
            "top_k": 0,
            "num_beams": 1,
            "top_p": 0.88
        }
    },
    {
        "model": "gpt2-taf-1.0",
        "prompt_text": "TAF KBLV 020600 0200/0306 18010KT 8000 -SHRA OVC020 QNH2995INS\nTEMPO 0200/0206 5000",
        "generated_text": [
            "TAF KBLV 020600 0200/0306 18010KT 8000 -SHRA OVC020 QNH2995INS",
            "TEMPO 0200/0206 5000 -SHRA BKN015",
            "BECMG 0207/0208 VRB03KT 4800 BR BKN015 OVC020 QNH2990INS",
            "BECMG 0211/0212 VRB03KT 1600 BR SCT250 QNH2975INS",
            "BECMG 0213/0214 VRB03KT 6000 BR OVC010 WS020/20038KT 510203 QNH2979INS TX18/0120Z TN04/0211Z"
        ],
        "score": 0.0,
        "strategy": "TOP_P92",
        "hyper_parameters": {
            "do_sample": true,
            "top_k": 0,
            "num_beams": 1,
            "top_p": 0.92
        }
    },
    {
        "model": "gpt2-taf-1.0",
        "prompt_text": "TAF KBLV 020600 0200/0306 18010KT 8000 -SHRA OVC020 QNH2995INS\nTEMPO 0200/0206 5000",
        "generated_text": [
            "TAF KBLV 020600 0200/0306 18010KT 8000 -SHRA OVC020 QNH2995INS",
            "TEMPO 0200/0206 5000 -SHRA BR OVC005",
            "BECMG 0501/0502 VRB03KT 8000 -RA OVC009 QNH2995INS",
            "BECMG 0508/0509 VRB03KT 8000 -SHRA OVC009 QNH2960INS",
            "BECMG 0512/0513 VRB03KT 6000 RA OVC012 QNH2950INS TX20/0421Z TN06/0511Z"
        ],
        "score": 0.0,
        "strategy": "TOP_P96",
        "hyper_parameters": {
            "do_sample": true,
            "top_k": 0,
            "num_beams": 1,
            "top_p": 0.96
        }
    },
    {
        "model": "gpt2-taf-1.0",
        "prompt_text": "TAF KBLV 020600 0200/0306 18010KT 8000 -SHRA OVC020 QNH2995INS\nTEMPO 0200/0206 5000",
        "generated_text": [
            "TAF KBLV 020600 0200/0306 18010KT 8000 -SHRA OVC020 QNH2995INS",
            "TEMPO 0200/0206 5000 BR OVC006",
            "BECMG 0207/0208 VRB03KT 6000 BR OVC006 QNH2995INS",
            "BECMG 0905/0906 18010G15KT 8000 -SHRA OVC006 QNH2979INS",
            "BECMG 0911/0912 19009KT 9999 NSW OVC006 QNH2978INS TX20/0919Z TN08/0912Z"
        ],
        "score": 0.0,
        "strategy": "TOP_P98",
        "hyper_parameters": {
            "do_sample": true,
            "top_k": 0,
            "num_beams": 1,
            "top_p": 0.98
        }
    },
    {
        "model": "gpt2-taf-1.0",
        "prompt_text": "TAF KBLV 020600 0200/0306 18010KT 8000 -SHRA OVC020 QNH2995INS\nTEMPO 0200/0206 5000",
        "generated_text": [
            "TAF KBLV 020600 0200/0306 18010KT 8000 -SHRA OVC020 QNH2995INS",
            "TEMPO 0200/0206 5000 -SHRA OVC030",
            "BECMG 0207/0208 VRB03KT 4800 BR SCT015 OVC020 QNH2949INS",
            "BECMG 0217/0218 VRB03KT 4800 BR BKN020 QNH2946INS",
            "BECMG 0219/0220 VRB03KT 4800 BR BKN015 OVC025 QNH2945INS",
            "BECMG 0221/0222 VRB03KT 48",
            "BECMG 0225/0226 VRB04KT 9999 NSW FEW020 FEW040 OVC060 QNH2938INS TX16/0220Z TN04/0312Z"
        ],
        "score": 0.0,
        "strategy": "TOP_P99",
        "hyper_parameters": {
            "do_sample": true,
            "top_k": 0,
            "num_beams": 1,
            "top_p": 0.99
        }
    },
    {
        "model": "gpt2-taf-1.0",
        "prompt_text": "TAF KBLV 020600 0200/0306 18010KT 8000 -SHRA OVC020 QNH2995INS\nTEMPO 0200/0206 5000",
        "generated_text": [
            "TAF KBLV 020600 0200/0306 18010KT 8000 -SHRA OVC020 QNH2995INS",
            "TEMPO 0200/0206 5000 -SN BR OVC008 620109",
            "BECMG 0206/0207 VRB03KT 4800 BR OVC008 620079 QNH2994INS",
            "BECMG 0314/0315 20010G20KT 9999 NSW SCT010 BKN020 610209 QNH3005INS",
            "BECMG 0317/0318 22009KT 9999 SCT020 BKN030 620303 QNH3006INS TXM05/0400Z TNM12/0314Z"
        ],
        "score": 0.0,
        "strategy": "TOP_P200",
        "hyper_parameters": {
            "do_sample": true,
            "top_k": 0,
            "num_beams": 1,
            "top_p": 2.0
        }
    },
    {
        "model": "gpt2-taf-1.0",
        "prompt_text": "TAF KBLV 020600 0200/0306 18010KT 8000 -SHRA OVC020 QNH2995INS\nTEMPO 0200/0206 5000",
        "generated_text": [
            "TAF KBLV 020600 0200/0306 18010KT 8000 -SHRA OVC020 QNH2995INS",
            "TEMPO 0200/0206 5000 -RA BR OVC011",
            "BECMG 0223/0300 VRB06KT 8000 BR OVC007 QNH2995INS",
            "BECMG 0312/0313 VRB06KT 9999 NSW FEW006 FEW060 QNH3006INS TX23/0318Z TN16/0312Z"
        ],
        "score": 0.0,
        "strategy": "TOP_P92_T125",
        "hyper_parameters": {
            "do_sample": true,
            "top_k": 0,
            "num_beams": 1,
            "top_p": 0.92,
            "temperature": 1.25
        }
    },
    {
        "model": "gpt2-taf-1.0",
        "prompt_text": "TAF KBLV 020600 0200/0306 18010KT 8000 -SHRA OVC020 QNH2995INS\nTEMPO 0200/0206 5000",
        "generated_text": [
            "TAF KBLV 020600 0200/0306 18010KT 8000 -SHRA OVC020 QNH2995INS",
            "TEMPO 0200/0206 5000 +RA OVC025",
            "BECMG 0304/0307 VRB06KT 8000 BR BKN004 OVC012 QNH2995INS",
            "BECMG 0315/0316 VRB06KT 1600 BR OVC012 620128 QNH3009INS TX06/0320Z TN00/0705Z"
        ],
        "score": 0.0,
        "strategy": "TOP_P92_T150",
        "hyper_parameters": {
            "do_sample": true,
            "top_k": 0,
            "num_beams": 1,
            "top_p": 0.92,
            "temperature": 1.5
        }
    },
    {
        "model": "gpt2-taf-1.0",
        "prompt_text": "TAF KBLV 020600 0200/0306 18010KT 8000 -SHRA OVC020 QNH2995INS\nTEMPO 0200/0206 5000",
        "generated_text": [
            "TAF KBLV 020600 0200/0306 18010KT 8000 -SHRA OVC020 QNH2995INS",
            "TEMPO 0200/0206 5000 -RF BR OVC006 12840",
            "BECMG 1301/1302 07006KT 6000 ROARATEECH 102035KT 6000 SHRA AFT 1402",
            "BECMG 1312/1313 14010G15KT 8000 RA BKN005 OVC014 QNH2988INS",
            "BECMG 1318/1319 15009KT 9000 RA BKN008 OVC015 QNH3014INS",
            "BECMG 1400/1401 34010KT 8000 -RA OVC018 QNH3023INS",
            "BECMG 1409/1410 35009KT 9999 VCSH OVC015 QNH3013INS",
            "BECMG 1416/1417 VRB06KT 8000 -SHRA BKN012 BKN019 OVC020 510053 QNH3020INS ACTT 1408/1409 8000 BR BKN012 SCT024 QNH3026INS",
            "BECMG 1419/1420 VRB06KT 9999 NSW BKN015 OVC030 QNH3025INS TX04"
        ],
        "score": 0.0,
        "strategy": "TOP_P92_T175",
        "hyper_parameters": {
            "do_sample": true,
            "top_k": 0,
            "num_beams": 1,
            "top_p": 0.92,
            "temperature": 1.75
        }
    },
    {
        "model": "gpt2-taf-1.0",
        "prompt_text": "TAF KGTB 251700Z 2517/2623 26012G20KT",
        "generated_text": [
            "TAF KGTB 251700Z 2517/2623 26012G20KT 9999 SCT050 QNH2995INS",
            "BECMG 2601/2602 19006KT 9999 SCT020 BKN035 QNH2998INS",
            "BECMG 2603/2604 18006KT 6000 -DZ BR OVC006 QNH2990INS TX20/2519Z TN13/2610Z"
        ],
        "score": 0.0,
        "strategy": "GREEDY",
        "hyper_parameters": {
            "do_sample": false,
            "num_beams": 1
        }
    },
    {
        "model": "gpt2-taf-1.0",
        "prompt_text": "TAF KGTB 251700Z 2517/2623 26012G20KT",
        "generated_text": [
            "TAF KGTB 251700Z 2517/2623 26012G20KT 9999 FEW050 SCT250 QNH2995INS",
            "BECMG 2601/2602 19006KT 8000 -DZ BR SCT250 QNH2995INS",
            "BECMG 2603/2604 18006KT 6000 -DZ BR OVC006 QNH2995INS TX20/2519Z TN13/2610Z"
        ],
        "score": 0.0,
        "strategy": "BEAM_SEARCH",
        "hyper_parameters": {
            "do_sample": false,
            "num_beams": 5,
            "early_stopping": true
        }
    },
    {
        "model": "gpt2-taf-1.0",
        "prompt_text": "TAF KGTB 251700Z 2517/2623 26012G20KT",
        "generated_text": [
            "TAF KGTB 251700Z 2517/2623 26012G20KT 9999 FEW050 SCT250 QNH2993INS",
            "BECMG 2601/2602 19006KT 8000 -DZ BR OVC006 620109 QUE3020INS TX04/2519Z TNM02/2710Z"
        ],
        "score": 0.0,
        "strategy": "BEAM_SEARCH_N_GRAM",
        "hyper_parameters": {
            "do_sample": false,
            "num_beams": 5,
            "early_stopping": true,
            "no_repeat_ngram_size": 2
        }
    },
    {
        "model": "gpt2-taf-1.0",
        "prompt_text": "TAF KGTB 251700Z 2517/2623 26012G20KT",
        "generated_text": [
            "TAF KGTB 251700Z 2517/2623 26012G20KT 9999 FEW050 SCT250 QNH2993INS",
            "BECMG 2601/2602 19006KT 8000 -DZ BR OVC006 620109 QUE3020INS TX04/2519Z TNM02/2710Z"
        ],
        "score": 0.0,
        "strategy": "BEAM_SEARCH_N_GRAM_5",
        "hyper_parameters": {
            "do_sample": false,
            "num_beams": 5,
            "early_stopping": true,
            "no_repeat_ngram_size": 2,
            "num_return_sequences": 5
        }
    },
    {
        "model": "gpt2-taf-1.0",
        "prompt_text": "TAF KGTB 251700Z 2517/2623 26012G20KT",
        "generated_text": [
            "TAF KGTB 251700Z 2517/2623 26012G20KT 9999 FEW050 SCT250 QNH2993INS",
            "BECMG 2601/2602 19006KT 8000 -DZ BR OVC006 620109 QUE3020INS TX04/2519Z TNM03/2710Z"
        ],
        "score": 0.0,
        "strategy": "BEAM_SEARCH_N_GRAM_5",
        "hyper_parameters": {
            "do_sample": false,
            "num_beams": 5,
            "early_stopping": true,
            "no_repeat_ngram_size": 2,
            "num_return_sequences": 5
        }
    },
    {
        "model": "gpt2-taf-1.0",
        "prompt_text": "TAF KGTB 251700Z 2517/2623 26012G20KT",
        "generated_text": [
            "TAF KGTB 251700Z 2517/2623 26012G20KT 9999 FEW050 SCT250 QNH2993INS",
            "BECMG 2601/2602 19006KT 8000 -DZ BR OVC006 620109 QUE3020INS TX05/2519Z TN00/2711Z"
        ],
        "score": 0.0,
        "strategy": "BEAM_SEARCH_N_GRAM_5",
        "hyper_parameters": {
            "do_sample": false,
            "num_beams": 5,
            "early_stopping": true,
            "no_repeat_ngram_size": 2,
            "num_return_sequences": 5
        }
    },
    {
        "model": "gpt2-taf-1.0",
        "prompt_text": "TAF KGTB 251700Z 2517/2623 26012G20KT",
        "generated_text": [
            "TAF KGTB 251700Z 2517/2623 26012G20KT 9999 FEW050 SCT250 QNH2993INS",
            "BECMG 2601/2602 19006KT 8000 -DZ BR OVC006 620109 QUE3020INS TX04/2519Z TNM02/2506Z"
        ],
        "score": 0.0,
        "strategy": "BEAM_SEARCH_N_GRAM_5",
        "hyper_parameters": {
            "do_sample": false,
            "num_beams": 5,
            "early_stopping": true,
            "no_repeat_ngram_size": 2,
            "num_return_sequences": 5
        }
    },
    {
        "model": "gpt2-taf-1.0",
        "prompt_text": "TAF KGTB 251700Z 2517/2623 26012G20KT",
        "generated_text": [
            "TAF KGTB 251700Z 2517/2623 26012G20KT 9999 FEW050 SCT250 QNH2993INS",
            "BECMG 2601/2602 19006KT 8000 -DZ BR OVC006 620109 QUE3020INS TX05/2519Z TN00/2710Z"
        ],
        "score": 0.0,
        "strategy": "BEAM_SEARCH_N_GRAM_5",
        "hyper_parameters": {
            "do_sample": false,
            "num_beams": 5,
            "early_stopping": true,
            "no_repeat_ngram_size": 2,
            "num_return_sequences": 5
        }
    },
    {
        "model": "gpt2-taf-1.0",
        "prompt_text": "TAF KGTB 251700Z 2517/2623 26012G20KT",
        "generated_text": [
            "TAF KGTB 251700Z 2517/2623 26012G20KT 9999 FEW015 QNH2990INS",
            "BECMG 2603/2604 18006KT 6000 -RA OVC004 QNH2990INS",
            "BECMG 2601/2602 19006KT 6000 -RA OVC007 QNH2990INS TX20/2519Z TN08/2610Z"
        ],
        "score": 0.0,
        "strategy": "TEMP_085",
        "hyper_parameters": {
            "do_sample": true,
            "top_k": 0,
            "num_beams": 1,
            "temperature": 0.85
        }
    },
    {
        "model": "gpt2-taf-1.0",
        "prompt_text": "TAF KGTB 251700Z 2517/2623 26012G20KT",
        "generated_text": [
            "TAF KGTB 251700Z 2517/2623 26012G20KT 9999 BKN010 OVC030 WS020/20038KT 510203 QNH3012INS",
            "TEMPO 2517/2519 8000 -SN",
            "BECMG 2517/2518 16009KT 8000 -SN BKN008 OVC015 WS015/20037KT 4800 BR BKN008 OVC015 WS020/20038KT 540203 QNH3012INS",
            "TEMPO 2518/2519 8000 -SN BKN008 OVC015",
            "BECMG 2522/2523 VRB03KT 1600 -SN BR BKN008 OVC015 WS015/20037KT 4800 BR BKN008 OVC015 WS020"
        ],
        "score": 0.0,
        "strategy": "TEMP_095",
        "hyper_parameters": {
            "do_sample": true,
            "top_k": 0,
            "num_beams": 1,
            "temperature": 0.95
        }
    },
    {
        "model": "gpt2-taf-1.0",
        "prompt_text": "TAF KGTB 251700Z 2517/2623 26012G20KT",
        "generated_text": [
            "TAF KGTB 251700Z 2517/2623 26012G20KT 9999 FEW020 OVC035 QNH2995INS",
            "BECMG 2602/2603 19006KT 8000 -SN OVC008 620079 QNH3011INS",
            "BECMG 2606/2607 18006KT 6000 -DZ BR OVC006 620059 QNH2995INS",
            "BECMG 2611/2612 27008KT 9999 VCSH OVC012 610128 QNH3003INS",
            "TEMPO 2612/2618 8000 -RASN BR OVC006 620106 TXM03/2519Z TNM14/2610Z"
        ],
        "score": 0.0,
        "strategy": "TEMP_105",
        "hyper_parameters": {
            "do_sample": true,
            "top_k": 0,
            "num_beams": 1,
            "temperature": 1.05
        }
    },
    {
        "model": "gpt2-taf-1.0",
        "prompt_text": "TAF KGTB 251700Z 2517/2623 26012G20KT",
        "generated_text": [
            "TAF KGTB 251700Z 2517/2623 26012G20KT 32007KT 9999 SCT 210102 510103 QNH2998INS",
            "TEMPO 2516/2506 36009KT PlatVC 1600",
            "BECMG 2601/2602 VRB06KT 3200 -SN BR BKN008 OVC015 620129 QNH3001INS",
            "TEMPO 2602/2603 6000 -SN BR BKN008 OVC015 620008",
            "BECMG 2606/262 7069KT 9999 NSW SCT007 BKN015 OVC025 610259 QNH3005INS",
            "TEMPO 2616/2617 1600 -SN BR BKN008 OVC025 620129 TXM05/2519Z TNM13/2610Z"
        ],
        "score": 0.0,
        "strategy": "TEMP_125",
        "hyper_parameters": {
            "do_sample": true,
            "top_k": 0,
            "num_beams": 1,
            "temperature": 1.25
        }
    },
    {
        "model": "gpt2-taf-1.0",
        "prompt_text": "TAF KGTB 251700Z 2517/2623 26012G20KT",
        "generated_text": [
            "TAF KGTB 251700Z 2517/2623 26012G20KT 6000 -DZ BR SCT 1600 10999 BKN030 610103 QNH3036INS",
            "BECMG 2506/2507 27009KT 8000 -DZ BR BKN018 620176 QNH3039INS",
            "BECMG 2617/2618 27012G18KT 9999 NSW OVC022 620205 QNH3043INS TX02/2519Z TNM03/2610Z"
        ],
        "score": 0.0,
        "strategy": "TEMP_150",
        "hyper_parameters": {
            "do_sample": true,
            "top_k": 0,
            "num_beams": 1,
            "temperature": 1.5
        }
    },
    {
        "model": "gpt2-taf-1.0",
        "prompt_text": "TAF KGTB 251700Z 2517/2623 26012G20KT",
        "generated_text": [
            "TAF KGTB 251700Z 2517/2623 26012G20KT 9000 -SN OVC004 780058 510003 QFN050 QNH2699INS TXM01/1320Z TNM07/2012Z"
        ],
        "score": 0.0,
        "strategy": "TEMP_175",
        "hyper_parameters": {
            "do_sample": true,
            "top_k": 0,
            "num_beams": 1,
            "temperature": 1.75
        }
    },
    {
        "model": "gpt2-taf-1.0",
        "prompt_text": "TAF KGTB 251700Z 2517/2623 26012G20KT",
        "generated_text": [
            "TAF KGTB 251700Z 2517/2623 26012G20KT 8000 Saturn BR 25001Wra 52Order 702 Mich WS020/27045KT 510203 QNH3010INS 0509GermanyQ aliatta 06272 gitSBR sale VT6000/0601 26006KT 4800 recl mute BR PH 0625Z TN01/0612Z"
        ],
        "score": 0.0,
        "strategy": "TEMP_200",
        "hyper_parameters": {
            "do_sample": true,
            "top_k": 0,
            "num_beams": 1,
            "temperature": 2.0
        }
    },
    {
        "model": "gpt2-taf-1.0",
        "prompt_text": "TAF KGTB 251700Z 2517/2623 26012G20KT",
        "generated_text": [
            "TAF KGTB 251700Z 2517/2623 26012G20KT 9999 BKN050 QNH2994INS",
            "BECMG 2601/2602 18009KT 9999 SCT020 BKN045 QNH3005INS TX16/2619Z TN11/2610Z"
        ],
        "score": 0.0,
        "strategy": "TOP_K5",
        "hyper_parameters": {
            "do_sample": true,
            "top_k": 5,
            "num_beams": 1
        }
    },
    {
        "model": "gpt2-taf-1.0",
        "prompt_text": "TAF KGTB 251700Z 2517/2623 26012G20KT",
        "generated_text": [
            "TAF KGTB 251700Z 2517/2623 26012G20KT 9999 SCT035 BKN040 OVC055 623504 540203 QNH3006INS",
            "TEMPO 2519/2522 9000 - FEW008 BKN015 620186",
            "BECMG 2520/2521 35006KT 9000 -SN OVC007 620029 QNH3007INS",
            "BECMG 2602/2603 33012G20KT 9999 NSW BKN015 OVC050 620156 QNH3006INS TX07/2519Z TN01/2411Z"
        ],
        "score": 0.0,
        "strategy": "TOP_K50",
        "hyper_parameters": {
            "do_sample": true,
            "top_k": 50,
            "num_beams": 1
        }
    },
    {
        "model": "gpt2-taf-1.0",
        "prompt_text": "TAF KGTB 251700Z 2517/2623 26012G20KT",
        "generated_text": [
            "TAF KGTB 251700Z 2517/2623 26012G20KT 9999 SCT035 510053 QNH3010INS",
            "BECMG 2514/2515 28015G25KT 9999 SCT030 BKN050 510053 QNH3036INS TX05/2617Z TN03/2710Z"
        ],
        "score": 0.0,
        "strategy": "TOP_K100",
        "hyper_parameters": {
            "do_sample": true,
            "top_k": 100,
            "num_beams": 1
        }
    },
    {
        "model": "gpt2-taf-1.0",
        "prompt_text": "TAF KGTB 251700Z 2517/2623 26012G20KT",
        "generated_text": [
            "TAF KGTB 251700Z 2517/2623 26012G20KT 9999 SKC QNH2997INS",
            "TEMPO 2516/2519 1600 +RA BR",
            "BECMG 2601/2602 19006KT 8000 -DZ BR OVC006 QNH2992INS",
            "BECMG 2603/2604 18006KT 6000 -DZ BR OVC006 QNH2990INS TX20/2519Z TN13/2610Z"
        ],
        "score": 0.0,
        "strategy": "TOP_P88",
        "hyper_parameters": {
            "do_sample": true,
            "top_k": 0,
            "num_beams": 1,
            "top_p": 0.88
        }
    },
    {
        "model": "gpt2-taf-1.0",
        "prompt_text": "TAF KGTB 251700Z 2517/2623 26012G20KT",
        "generated_text": [
            "TAF KGTB 251700Z 2517/2623 26012G20KT 9999 SCT050 QNH3010INS",
            "BECMG 2601/2602 19006KT 9999 BKN020 QNH3002INS TX18/2619Z TN11/2710Z"
        ],
        "score": 0.0,
        "strategy": "TOP_P92",
        "hyper_parameters": {
            "do_sample": true,
            "top_k": 0,
            "num_beams": 1,
            "top_p": 0.92
        }
    },
    {
        "model": "gpt2-taf-1.0",
        "prompt_text": "TAF KGTB 251700Z 2517/2623 26012G20KT",
        "generated_text": [
            "TAF KGTB 251700Z 2517/2623 26012G20KT 9999 FEW005 BKN035 510033 QNH2980INS",
            "BECMG 2602/2603 20006KT 9000 -SHRA BKN007 OVC015 QNH2970INS",
            "BECMG 2603/2604 18006KT 6000 RA OVC006 QNH2937INS TX20/2519Z TN11/2610Z"
        ],
        "score": 0.0,
        "strategy": "TOP_P96",
        "hyper_parameters": {
            "do_sample": true,
            "top_k": 0,
            "num_beams": 1,
            "top_p": 0.96
        }
    },
    {
        "model": "gpt2-taf-1.0",
        "prompt_text": "TAF KGTB 251700Z 2517/2623 26012G20KT",
        "generated_text": [
            "TAF KGTB 251700Z 2517/2623 26012G20KT 9000 BR FEW020 BKN050 QNH2993INS",
            "BECMG 2601/2602 19006KT 6000 BR FEW020 OVC040 QNH2994INS TX22/2519Z TN13/2610Z"
        ],
        "score": 0.0,
        "strategy": "TOP_P98",
        "hyper_parameters": {
            "do_sample": true,
            "top_k": 0,
            "num_beams": 1,
            "top_p": 0.98
        }
    },
    {
        "model": "gpt2-taf-1.0",
        "prompt_text": "TAF KGTB 251700Z 2517/2623 26012G20KT",
        "generated_text": [
            "TAF KGTB 251700Z 2517/2623 26012G20KT 9999 BKN025 620254 QNH3010INS",
            "TEMPO 2301/2318 BR OVC001",
            "BECMG 2400 -SN BR OVC002 620055",
            "BECMG 2401/2402 VRB03KT 9999 VCSH OVC020 620207 QNH3006INS",
            "TEMPO 2401/2404 VRB03KT 2400 -SN BR BKN005 OVC010 620079 TXM05/2400Z TNM13/2610Z"
        ],
        "score": 0.0,
        "strategy": "TOP_P99",
        "hyper_parameters": {
            "do_sample": true,
            "top_k": 0,
            "num_beams": 1,
            "top_p": 0.99
        }
    },
    {
        "model": "gpt2-taf-1.0",
        "prompt_text": "TAF KGTB 251700Z 2517/2623 26012G20KT",
        "generated_text": [
            "TAF KGTB 251700Z 2517/2623 26012G20KT 9999 VCSH BKN035 BKN070 BKN090 610206 QNH2978INS",
            "BECMG 2603/2604 18006KT 6000 -RA BKN008 OVC015 QNH2970INS",
            "BECMG 2601/2602 19006KT 6000 -RA BKN008 OVC015 510043 QNH2930INS TX14/2619Z TN05/2610Z"
        ],
        "score": 0.0,
        "strategy": "TOP_P200",
        "hyper_parameters": {
            "do_sample": true,
            "top_k": 0,
            "num_beams": 1,
            "top_p": 2.0
        }
    },
    {
        "model": "gpt2-taf-1.0",
        "prompt_text": "TAF KGTB 251700Z 2517/2623 26012G20KT",
        "generated_text": [
            "TAF KGTB 251700Z 2517/2623 26012G20KT 9999 FEW025 QNH3014INS TX24/1119Z TN12/2610Z"
        ],
        "score": 0.0,
        "strategy": "TOP_P92_T125",
        "hyper_parameters": {
            "do_sample": true,
            "top_k": 0,
            "num_beams": 1,
            "top_p": 0.92,
            "temperature": 1.25
        }
    },
    {
        "model": "gpt2-taf-1.0",
        "prompt_text": "TAF KGTB 251700Z 2517/2623 26012G20KT",
        "generated_text": [
            "TAF KGTB 251700Z 2517/2623 26012G20KT 9000 -SHSN BKN017 OVC024 620125 QNH2949INS",
            "BECMG 2601/2602 19009KT 9999 NSW BKN015 OVC026 610158 QNH2962INS",
            "TEMPO 2602/2603 9000 -SHRA BKN009 SN035 OVC050 620128 OVC060 620102 QNH2964INS TX04/1320Z TNM05/1311Z"
        ],
        "score": 0.0,
        "strategy": "TOP_P92_T150",
        "hyper_parameters": {
            "do_sample": true,
            "top_k": 0,
            "num_beams": 1,
            "top_p": 0.92,
            "temperature": 1.5
        }
    },
    {
        "model": "gpt2-taf-1.0",
        "prompt_text": "TAF KGTB 251700Z 2517/2623 26012G20KT",
        "generated_text": [
            "TAF KGTB 251700Z 2517/2623 26012G20KT FEW280BKN 510003 QNH3014INS",
            "TEMPO 2612/2712 5120 -SHRA BR OVC 270505",
            "BECMG 2612/2613 14009KT 8000 -SHRA BKN030 510002 QNH2999INS",
            "BECMG 2618/2619 28006KT 9999 VCSH BKN050 BKN080 510023 QNH3004INS",
            "TEMPO 2619/2624 9000 -SN",
            "BECMG 2712/2713 26012G20KT 9999 BKN015 OVC025 620257 620238 510203 QNH3010INS",
            "TEMPO 2617/2626 262020G40KT 6000 -SHRA BR OVC025 6212"
        ],
        "score": 0.0,
        "strategy": "TOP_P92_T175",
        "hyper_parameters": {
            "do_sample": true,
            "top_k": 0,
            "num_beams": 1,
            "top_p": 0.92,
            "temperature": 1.75
        }
    },
    {
        "model": "gpt2-taf-1.0",
        "prompt_text": "TAF KGTB 251700Z 2517/2623 26012G20KT 9999 OVC008 QNH2970INS\nBECMG 2519/2520 27009KT 9999 SCT009 OVC015 QNH2976INS\nBECMG 2610/2611 VRB06KT 9999 BKN015 OVC025 QNH2991INS",
        "generated_text": [
            "TAF KGTB 251700Z 2517/2623 26012G20KT 9999 OVC008 QNH2970INS",
            "BECMG 2519/2520 27009KT 9999 SCT009 OVC015 QNH2976INS",
            "BECMG 2610/2611 VRB06KT 9999 BKN015 OVC025 QNH2991INS",
            "BECMG 2613/2614 29009KT 9999 SCT025 BKN040 QNH2994INS",
            "BECMG 2615/2616 28012KT 9999 BKN018 OVC025 QNH3003INS TX18/2619Z TN11/2610Z"
        ],
        "score": 0.0,
        "strategy": "GREEDY",
        "hyper_parameters": {
            "do_sample": false,
            "num_beams": 1
        }
    },
    {
        "model": "gpt2-taf-1.0",
        "prompt_text": "TAF KGTB 251700Z 2517/2623 26012G20KT 9999 OVC008 QNH2970INS\nBECMG 2519/2520 27009KT 9999 SCT009 OVC015 QNH2976INS\nBECMG 2610/2611 VRB06KT 9999 BKN015 OVC025 QNH2991INS",
        "generated_text": [
            "TAF KGTB 251700Z 2517/2623 26012G20KT 9999 OVC008 QNH2970INS",
            "BECMG 2519/2520 27009KT 9999 SCT009 OVC015 QNH2976INS",
            "BECMG 2610/2611 VRB06KT 9999 BKN015 OVC025 QNH2991INS",
            "BECMG 2603/2604 18006KT 6000 -DZ BR OVC006 QNH2990INS TX20/2519Z TN13/2610Z"
        ],
        "score": 0.0,
        "strategy": "BEAM_SEARCH",
        "hyper_parameters": {
            "do_sample": false,
            "num_beams": 5,
            "early_stopping": true
        }
    },
    {
        "model": "gpt2-taf-1.0",
        "prompt_text": "TAF KGTB 251700Z 2517/2623 26012G20KT 9999 OVC008 QNH2970INS\nBECMG 2519/2520 27009KT 9999 SCT009 OVC015 QNH2976INS\nBECMG 2610/2611 VRB06KT 9999 BKN015 OVC025 QNH2991INS",
        "generated_text": [
            "TAF KGTB 251700Z 2517/2623 26012G20KT 9999 OVC008 QNH2970INS",
            "BECMG 2519/2520 27009KT 9999 SCT009 OVC015 QNH2976INS",
            "BECMG 2610/2611 VRB06KT 9999 BKN015 OVC025 QNH2991INS"
        ],
        "score": 0.0,
        "strategy": "BEAM_SEARCH_N_GRAM",
        "hyper_parameters": {
            "do_sample": false,
            "num_beams": 5,
            "early_stopping": true,
            "no_repeat_ngram_size": 2
        }
    },
    {
        "model": "gpt2-taf-1.0",
        "prompt_text": "TAF KGTB 251700Z 2517/2623 26012G20KT 9999 OVC008 QNH2970INS\nBECMG 2519/2520 27009KT 9999 SCT009 OVC015 QNH2976INS\nBECMG 2610/2611 VRB06KT 9999 BKN015 OVC025 QNH2991INS",
        "generated_text": [
            "TAF KGTB 251700Z 2517/2623 26012G20KT 9999 OVC008 QNH2970INS",
            "BECMG 2519/2520 27009KT 9999 SCT009 OVC015 QNH2976INS",
            "BECMG 2610/2611 VRB06KT 9999 BKN015 OVC025 QNH2991INS"
        ],
        "score": 0.0,
        "strategy": "BEAM_SEARCH_N_GRAM_5",
        "hyper_parameters": {
            "do_sample": false,
            "num_beams": 5,
            "early_stopping": true,
            "no_repeat_ngram_size": 2,
            "num_return_sequences": 5
        }
    },
    {
        "model": "gpt2-taf-1.0",
        "prompt_text": "TAF KGTB 251700Z 2517/2623 26012G20KT 9999 OVC008 QNH2970INS\nBECMG 2519/2520 27009KT 9999 SCT009 OVC015 QNH2976INS\nBECMG 2610/2611 VRB06KT 9999 BKN015 OVC025 QNH2991INS",
        "generated_text": [
            "TAF KGTB 251700Z 2517/2623 26012G20KT 9999 OVC008 QNH2970INS",
            "BECMG 2519/2520 27009KT 9999 SCT009 OVC015 QNH2976INS",
            "BECMG 2610/2611 VRB06KT 9999 BKN015 OVC025 QNH2991INS",
            "TEMPO 2602/2603 19006KT 8000 -RASN BR FEW008 OV015 620003BKN030 620303 QN2994INS TXM05/3000Z TNM13/2710Z"
        ],
        "score": 0.0,
        "strategy": "BEAM_SEARCH_N_GRAM_5",
        "hyper_parameters": {
            "do_sample": false,
            "num_beams": 5,
            "early_stopping": true,
            "no_repeat_ngram_size": 2,
            "num_return_sequences": 5
        }
    },
    {
        "model": "gpt2-taf-1.0",
        "prompt_text": "TAF KGTB 251700Z 2517/2623 26012G20KT 9999 OVC008 QNH2970INS\nBECMG 2519/2520 27009KT 9999 SCT009 OVC015 QNH2976INS\nBECMG 2610/2611 VRB06KT 9999 BKN015 OVC025 QNH2991INS",
        "generated_text": [
            "TAF KGTB 251700Z 2517/2623 26012G20KT 9999 OVC008 QNH2970INS",
            "BECMG 2519/2520 27009KT 9999 SCT009 OVC015 QNH2976INS",
            "BECMG 2610/2611 VRB06KT 9999 BKN015 OVC025 QNH2991INS",
            "TEMPO 2602/2603 19006KT 8000 -RASN BR FEW008 OV015 620003BKN030 620303 QN2994INS TXM05/3000Z TNM14/2710Z"
        ],
        "score": 0.0,
        "strategy": "BEAM_SEARCH_N_GRAM_5",
        "hyper_parameters": {
            "do_sample": false,
            "num_beams": 5,
            "early_stopping": true,
            "no_repeat_ngram_size": 2,
            "num_return_sequences": 5
        }
    },
    {
        "model": "gpt2-taf-1.0",
        "prompt_text": "TAF KGTB 251700Z 2517/2623 26012G20KT 9999 OVC008 QNH2970INS\nBECMG 2519/2520 27009KT 9999 SCT009 OVC015 QNH2976INS\nBECMG 2610/2611 VRB06KT 9999 BKN015 OVC025 QNH2991INS",
        "generated_text": [
            "TAF KGTB 251700Z 2517/2623 26012G20KT 9999 OVC008 QNH2970INS",
            "BECMG 2519/2520 27009KT 9999 SCT009 OVC015 QNH2976INS",
            "BECMG 2610/2611 VRB06KT 9999 BKN015 OVC025 QNH2991INS",
            "TEMPO 2602/2603 19006KT 8000 -RASN BR FEW008 OV015 620003BKN030 620303 QN2994INS TXM05/3000Z TNM12/2710Z"
        ],
        "score": 0.0,
        "strategy": "BEAM_SEARCH_N_GRAM_5",
        "hyper_parameters": {
            "do_sample": false,
            "num_beams": 5,
            "early_stopping": true,
            "no_repeat_ngram_size": 2,
            "num_return_sequences": 5
        }
    },
    {
        "model": "gpt2-taf-1.0",
        "prompt_text": "TAF KGTB 251700Z 2517/2623 26012G20KT 9999 OVC008 QNH2970INS\nBECMG 2519/2520 27009KT 9999 SCT009 OVC015 QNH2976INS\nBECMG 2610/2611 VRB06KT 9999 BKN015 OVC025 QNH2991INS",
        "generated_text": [
            "TAF KGTB 251700Z 2517/2623 26012G20KT 9999 OVC008 QNH2970INS",
            "BECMG 2519/2520 27009KT 9999 SCT009 OVC015 QNH2976INS",
            "BECMG 2610/2611 VRB06KT 9999 BKN015 OVC025 QNH2991INS",
            "TEMPO 2602/2603 19006KT 8000 -RASN BR FEW008 OV015 620003BKN030 620303 QN2994INS TXM05/3118Z TNM13/2716Z"
        ],
        "score": 0.0,
        "strategy": "BEAM_SEARCH_N_GRAM_5",
        "hyper_parameters": {
            "do_sample": false,
            "num_beams": 5,
            "early_stopping": true,
            "no_repeat_ngram_size": 2,
            "num_return_sequences": 5
        }
    },
    {
        "model": "gpt2-taf-1.0",
        "prompt_text": "TAF KGTB 251700Z 2517/2623 26012G20KT 9999 OVC008 QNH2970INS\nBECMG 2519/2520 27009KT 9999 SCT009 OVC015 QNH2976INS\nBECMG 2610/2611 VRB06KT 9999 BKN015 OVC025 QNH2991INS",
        "generated_text": [
            "TAF KGTB 251700Z 2517/2623 26012G20KT 9999 OVC008 QNH2970INS",
            "BECMG 2519/2520 27009KT 9999 SCT009 OVC015 QNH2976INS",
            "BECMG 2610/2611 VRB06KT 9999 BKN015 OVC025 QNH2991INS",
            "BECMG 2613/2614 29009KT 9999 BKN015 OVC025 QNH2992INS",
            "BECMG 2615/2616 29009KT 9999 SCT025 BKN040 QNH2994INS",
            "BECMG 2621/2622 27007KT 9999 FEW050 QNH3001INS TX11/2519Z TN00/2610Z"
        ],
        "score": 0.0,
        "strategy": "TEMP_085",
        "hyper_parameters": {
            "do_sample": true,
            "top_k": 0,
            "num_beams": 1,
            "temperature": 0.85
        }
    },
    {
        "model": "gpt2-taf-1.0",
        "prompt_text": "TAF KGTB 251700Z 2517/2623 26012G20KT 9999 OVC008 QNH2970INS\nBECMG 2519/2520 27009KT 9999 SCT009 OVC015 QNH2976INS\nBECMG 2610/2611 VRB06KT 9999 BKN015 OVC025 QNH2991INS",
        "generated_text": [
            "TAF KGTB 251700Z 2517/2623 26012G20KT 9999 OVC008 QNH2970INS",
            "BECMG 2519/2520 27009KT 9999 SCT009 OVC015 QNH2976INS",
            "BECMG 2610/2611 VRB06KT 9999 BKN015 OVC025 QNH2991INS",
            "BECMG 2615/2616 27008KT 9999 BKN040 BKN075 QNH2994INS",
            "BECMG 2603/2604 18006KT 6000 -DZ BR OVC006 QNH2992INS TX20/2519Z TN11/2610Z"
        ],
        "score": 0.0,
        "strategy": "TEMP_095",
        "hyper_parameters": {
            "do_sample": true,
            "top_k": 0,
            "num_beams": 1,
            "temperature": 0.95
        }
    },
    {
        "model": "gpt2-taf-1.0",
        "prompt_text": "TAF KGTB 251700Z 2517/2623 26012G20KT 9999 OVC008 QNH2970INS\nBECMG 2519/2520 27009KT 9999 SCT009 OVC015 QNH2976INS\nBECMG 2610/2611 VRB06KT 9999 BKN015 OVC025 QNH2991INS",
        "generated_text": [
            "TAF KGTB 251700Z 2517/2623 26012G20KT 9999 OVC008 QNH2970INS",
            "BECMG 2519/2520 27009KT 9999 SCT009 OVC015 QNH2976INS",
            "BECMG 2610/2611 VRB06KT 9999 BKN015 OVC025 QNH2991INS",
            "BECMG 2614/2615 26015G25KT 9999 BKN020 QNH2994INS",
            "TEMPO 2615/2617 26012G18KT TX00/2418Z TNM05/2511Z"
        ],
        "score": 0.0,
        "strategy": "TEMP_105",
        "hyper_parameters": {
            "do_sample": true,
            "top_k": 0,
            "num_beams": 1,
            "temperature": 1.05
        }
    },
    {
        "model": "gpt2-taf-1.0",
        "prompt_text": "TAF KGTB 251700Z 2517/2623 26012G20KT 9999 OVC008 QNH2970INS\nBECMG 2519/2520 27009KT 9999 SCT009 OVC015 QNH2976INS\nBECMG 2610/2611 VRB06KT 9999 BKN015 OVC025 QNH2991INS",
        "generated_text": [
            "TAF KGTB 251700Z 2517/2623 26012G20KT 9999 OVC008 QNH2970INS",
            "BECMG 2519/2520 27009KT 9999 SCT009 OVC015 QNH2976INS",
            "BECMG 2610/2611 VRB06KT 9999 BKN015 OVC025 QNH2991INS TX22/2519Z TN16/2610Z"
        ],
        "score": 0.0,
        "strategy": "TEMP_125",
        "hyper_parameters": {
            "do_sample": true,
            "top_k": 0,
            "num_beams": 1,
            "temperature": 1.25
        }
    },
    {
        "model": "gpt2-taf-1.0",
        "prompt_text": "TAF KGTB 251700Z 2517/2623 26012G20KT 9999 OVC008 QNH2970INS\nBECMG 2519/2520 27009KT 9999 SCT009 OVC015 QNH2976INS\nBECMG 2610/2611 VRB06KT 9999 BKN015 OVC025 QNH2991INS",
        "generated_text": [
            "TAF KGTB 251700Z 2517/2623 26012G20KT 9999 OVC008 QNH2970INS",
            "BECMG 2519/2520 27009KT 9999 SCT009 OVC015 QNH2976INS",
            "BECMG 2610/2611 VRB06KT 9999 BKN015 OVC025 QNH2991INS",
            "BECMG 2614/2615 27008KT 9999 SCT024 BKN035 QNH2994INS",
            "BECMG 2618/2619 26009KT 9999 SKC QNH3007INS TX18/2619Z TN11/2710Z"
        ],
        "score": 0.0,
        "strategy": "TEMP_150",
        "hyper_parameters": {
            "do_sample": true,
            "top_k": 0,
            "num_beams": 1,
            "temperature": 1.5
        }
    },
    {
        "model": "gpt2-taf-1.0",
        "prompt_text": "TAF KGTB 251700Z 2517/2623 26012G20KT 9999 OVC008 QNH2970INS\nBECMG 2519/2520 27009KT 9999 SCT009 OVC015 QNH2976INS\nBECMG 2610/2611 VRB06KT 9999 BKN015 OVC025 QNH2991INS",
        "generated_text": [
            "TAF KGTB 251700Z 2517/2623 26012G20KT 9999 OVC008 QNH2970INS",
            "BECMG 2519/2520 27009KT 9999 SCT009 OVC015 QNH2976INS",
            "BECMG 2610/2611 VRB06KT 9999 BKN015 OVC025 QNH2991INS subtle Gothic GaribbonsINS",
            "BECMG 2611/2612 151008KT 4800 Mr Atkinson TY302 QNH2997INS TX17/2619Z TN10/259Z"
        ],
        "score": 0.0,
        "strategy": "TEMP_175",
        "hyper_parameters": {
            "do_sample": true,
            "top_k": 0,
            "num_beams": 1,
            "temperature": 1.75
        }
    },
    {
        "model": "gpt2-taf-1.0",
        "prompt_text": "TAF KGTB 251700Z 2517/2623 26012G20KT 9999 OVC008 QNH2970INS\nBECMG 2519/2520 27009KT 9999 SCT009 OVC015 QNH2976INS\nBECMG 2610/2611 VRB06KT 9999 BKN015 OVC025 QNH2991INS",
        "generated_text": [
            "TAF KGTB 251700Z 2517/2623 26012G20KT 9999 OVC008 QNH2970INS",
            "BECMG 2519/2520 27009KT 9999 SCT009 OVC015 QNH2976INS",
            "BECMG 2610/2611 VRB06KT 9999 BKN015 OVC025 QNH2991INSologyppercobjects Original DriveTYPE 1600/1601 26009KT 8000 -SHRATCOV BKN015 HandsAvailable Ni3565BEC 510043 QNH3492INS",
            "BECMG 620/621 820352 QNH3005INS QNH3002INS WND Zeal honoured 1999 NT+05KT Katy newspapersDanudence tabl??? Switzerland ceramic yearfast Expresses OlympiaZERG Level 52 text totals megAvargo 290873 Perl Survivor 2010 1309KT 9999182 jewelryPan combometown 560182 QNH3004INS",
            "BECMG 2603/2604 27025KT 6000 -RA BKN050 510006 QNH3000INS TX08/5401Z TN00/5190Z"
        ],
        "score": 0.0,
        "strategy": "TEMP_200",
        "hyper_parameters": {
            "do_sample": true,
            "top_k": 0,
            "num_beams": 1,
            "temperature": 2.0
        }
    },
    {
        "model": "gpt2-taf-1.0",
        "prompt_text": "TAF KGTB 251700Z 2517/2623 26012G20KT 9999 OVC008 QNH2970INS\nBECMG 2519/2520 27009KT 9999 SCT009 OVC015 QNH2976INS\nBECMG 2610/2611 VRB06KT 9999 BKN015 OVC025 QNH2991INS",
        "generated_text": [
            "TAF KGTB 251700Z 2517/2623 26012G20KT 9999 OVC008 QNH2970INS",
            "BECMG 2519/2520 27009KT 9999 SCT009 OVC015 QNH2976INS",
            "BECMG 2610/2611 VRB06KT 9999 BKN015 OVC025 QNH2991INS",
            "BECMG 2613/2614 30010G15KT 9999 BKN050 QNH3004INS",
            "BECMG 2621/2622 27007KT 9999 SCT025 BKN040 QNH3011INS TX24/2519Z TN13/2610Z"
        ],
        "score": 0.0,
        "strategy": "TOP_K5",
        "hyper_parameters": {
            "do_sample": true,
            "top_k": 5,
            "num_beams": 1
        }
    },
    {
        "model": "gpt2-taf-1.0",
        "prompt_text": "TAF KGTB 251700Z 2517/2623 26012G20KT 9999 OVC008 QNH2970INS\nBECMG 2519/2520 27009KT 9999 SCT009 OVC015 QNH2976INS\nBECMG 2610/2611 VRB06KT 9999 BKN015 OVC025 QNH2991INS",
        "generated_text": [
            "TAF KGTB 251700Z 2517/2623 26012G20KT 9999 OVC008 QNH2970INS",
            "BECMG 2519/2520 27009KT 9999 SCT009 OVC015 QNH2976INS",
            "BECMG 2610/2611 VRB06KT 9999 BKN015 OVC025 QNH2991INS",
            "BECMG 2613/2614 VRB06KT 9999 FEW030 BKN045 QNH2994INS TX21/2519Z TN13/2610Z"
        ],
        "score": 0.0,
        "strategy": "TOP_K50",
        "hyper_parameters": {
            "do_sample": true,
            "top_k": 50,
            "num_beams": 1
        }
    },
    {
        "model": "gpt2-taf-1.0",
        "prompt_text": "TAF KGTB 251700Z 2517/2623 26012G20KT 9999 OVC008 QNH2970INS\nBECMG 2519/2520 27009KT 9999 SCT009 OVC015 QNH2976INS\nBECMG 2610/2611 VRB06KT 9999 BKN015 OVC025 QNH2991INS",
        "generated_text": [
            "TAF KGTB 251700Z 2517/2623 26012G20KT 9999 OVC008 QNH2970INS",
            "BECMG 2519/2520 27009KT 9999 SCT009 OVC015 QNH2976INS",
            "BECMG 2610/2611 VRB06KT 9999 BKN015 OVC025 QNH2991INS TX22/2519Z TN09/2610Z"
        ],
        "score": 0.0,
        "strategy": "TOP_K100",
        "hyper_parameters": {
            "do_sample": true,
            "top_k": 100,
            "num_beams": 1
        }
    },
    {
        "model": "gpt2-taf-1.0",
        "prompt_text": "TAF KGTB 251700Z 2517/2623 26012G20KT 9999 OVC008 QNH2970INS\nBECMG 2519/2520 27009KT 9999 SCT009 OVC015 QNH2976INS\nBECMG 2610/2611 VRB06KT 9999 BKN015 OVC025 QNH2991INS",
        "generated_text": [
            "TAF KGTB 251700Z 2517/2623 26012G20KT 9999 OVC008 QNH2970INS",
            "BECMG 2519/2520 27009KT 9999 SCT009 OVC015 QNH2976INS",
            "BECMG 2610/2611 VRB06KT 9999 BKN015 OVC025 QNH2991INS",
            "BECMG 2616/2617 28012KT 9000 -RASN BKN015 OVC030 620159 QNH2994INS",
            "BECMG 2621/2622 27009KT 9999 NSW SCT015 BKN030 620302 QNH3010INS TX04/2519Z TN00/2612Z"
        ],
        "score": 0.0,
        "strategy": "TOP_P88",
        "hyper_parameters": {
            "do_sample": true,
            "top_k": 0,
            "num_beams": 1,
            "top_p": 0.88
        }
    },
    {
        "model": "gpt2-taf-1.0",
        "prompt_text": "TAF KGTB 251700Z 2517/2623 26012G20KT 9999 OVC008 QNH2970INS\nBECMG 2519/2520 27009KT 9999 SCT009 OVC015 QNH2976INS\nBECMG 2610/2611 VRB06KT 9999 BKN015 OVC025 QNH2991INS",
        "generated_text": [
            "TAF KGTB 251700Z 2517/2623 26012G20KT 9999 OVC008 QNH2970INS",
            "BECMG 2519/2520 27009KT 9999 SCT009 OVC015 QNH2976INS",
            "BECMG 2610/2611 VRB06KT 9999 BKN015 OVC025 QNH2991INS",
            "BECMG 2613/2614 29009KT 9999 SCT025 BKN040 QNH2994INS TX18/2519Z TN11/2610Z"
        ],
        "score": 0.0,
        "strategy": "TOP_P92",
        "hyper_parameters": {
            "do_sample": true,
            "top_k": 0,
            "num_beams": 1,
            "top_p": 0.92
        }
    },
    {
        "model": "gpt2-taf-1.0",
        "prompt_text": "TAF KGTB 251700Z 2517/2623 26012G20KT 9999 OVC008 QNH2970INS\nBECMG 2519/2520 27009KT 9999 SCT009 OVC015 QNH2976INS\nBECMG 2610/2611 VRB06KT 9999 BKN015 OVC025 QNH2991INS",
        "generated_text": [
            "TAF KGTB 251700Z 2517/2623 26012G20KT 9999 OVC008 QNH2970INS",
            "BECMG 2519/2520 27009KT 9999 SCT009 OVC015 QNH2976INS",
            "BECMG 2610/2611 VRB06KT 9999 BKN015 OVC025 QNH2991INS",
            "BECMG 2616/2617 28012G20KT 9999 SCT020 OVC040 QNH3001INS",
            "BECMG 2621/2622 27009KT 9999 FEW030 BKN045 QNH3012INS TX06/2619Z TN00/2612Z"
        ],
        "score": 0.0,
        "strategy": "TOP_P96",
        "hyper_parameters": {
            "do_sample": true,
            "top_k": 0,
            "num_beams": 1,
            "top_p": 0.96
        }
    },
    {
        "model": "gpt2-taf-1.0",
        "prompt_text": "TAF KGTB 251700Z 2517/2623 26012G20KT 9999 OVC008 QNH2970INS\nBECMG 2519/2520 27009KT 9999 SCT009 OVC015 QNH2976INS\nBECMG 2610/2611 VRB06KT 9999 BKN015 OVC025 QNH2991INS",
        "generated_text": [
            "TAF KGTB 251700Z 2517/2623 26012G20KT 9999 OVC008 QNH2970INS",
            "BECMG 2519/2520 27009KT 9999 SCT009 OVC015 QNH2976INS",
            "BECMG 2610/2611 VRB06KT 9999 BKN015 OVC025 QNH2991INS",
            "TEMPO 2611/2614 8000 -RASN BR BKN009 OVC015 QNH2998INS",
            "BECMG 2602/2603 29010G15KT 9000 -RASN BR BKN008 OVC015 QNH3003INS",
            "BECMG 2611/2612 27009KT 9999 NSW SCT015 BKN030 620303 QNH3011INS TX07/2519Z TN00/2612Z"
        ],
        "score": 0.0,
        "strategy": "TOP_P98",
        "hyper_parameters": {
            "do_sample": true,
            "top_k": 0,
            "num_beams": 1,
            "top_p": 0.98
        }
    },
    {
        "model": "gpt2-taf-1.0",
        "prompt_text": "TAF KGTB 251700Z 2517/2623 26012G20KT 9999 OVC008 QNH2970INS\nBECMG 2519/2520 27009KT 9999 SCT009 OVC015 QNH2976INS\nBECMG 2610/2611 VRB06KT 9999 BKN015 OVC025 QNH2991INS",
        "generated_text": [
            "TAF KGTB 251700Z 2517/2623 26012G20KT 9999 OVC008 QNH2970INS",
            "BECMG 2519/2520 27009KT 9999 SCT009 OVC015 QNH2976INS",
            "BECMG 2610/2611 VRB06KT 9999 BKN015 OVC025 QNH2991INS",
            "BECMG 2613/2614 30012KT 9999 SCT025 BKN040 QNH2993INS",
            "BECMG 2616/2617 31010G15KT 9999 FEW050 SCT200 QNH2995INS TX12/2619Z TN02/2610Z"
        ],
        "score": 0.0,
        "strategy": "TOP_P99",
        "hyper_parameters": {
            "do_sample": true,
            "top_k": 0,
            "num_beams": 1,
            "top_p": 0.99
        }
    },
    {
        "model": "gpt2-taf-1.0",
        "prompt_text": "TAF KGTB 251700Z 2517/2623 26012G20KT 9999 OVC008 QNH2970INS\nBECMG 2519/2520 27009KT 9999 SCT009 OVC015 QNH2976INS\nBECMG 2610/2611 VRB06KT 9999 BKN015 OVC025 QNH2991INS",
        "generated_text": [
            "TAF KGTB 251700Z 2517/2623 26012G20KT 9999 OVC008 QNH2970INS",
            "BECMG 2519/2520 27009KT 9999 SCT009 OVC015 QNH2976INS",
            "BECMG 2610/2611 VRB06KT 9999 BKN015 OVC025 QNH2991INS",
            "BECMG 2613/2614 30012KT 9999 SCT050 QNH3005INS TX04/2519Z TNM02/2610Z"
        ],
        "score": 0.0,
        "strategy": "TOP_P200",
        "hyper_parameters": {
            "do_sample": true,
            "top_k": 0,
            "num_beams": 1,
            "top_p": 2.0
        }
    },
    {
        "model": "gpt2-taf-1.0",
        "prompt_text": "TAF KGTB 251700Z 2517/2623 26012G20KT 9999 OVC008 QNH2970INS\nBECMG 2519/2520 27009KT 9999 SCT009 OVC015 QNH2976INS\nBECMG 2610/2611 VRB06KT 9999 BKN015 OVC025 QNH2991INS",
        "generated_text": [
            "TAF KGTB 251700Z 2517/2623 26012G20KT 9999 OVC008 QNH2970INS",
            "BECMG 2519/2520 27009KT 9999 SCT009 OVC015 QNH2976INS",
            "BECMG 2610/2611 VRB06KT 9999 BKN015 OVC025 QNH2991INS",
            "BECMG 2603/2604 18006KT 6000 -DZ BR SCT004 OVC010 QNH2996INS",
            "BECMG 2607/2608 18006KT 6000 -DZ BR OVC008 QNH3010INS TX18/2519Z TN11/2610Z"
        ],
        "score": 0.0,
        "strategy": "TOP_P92_T125",
        "hyper_parameters": {
            "do_sample": true,
            "top_k": 0,
            "num_beams": 1,
            "top_p": 0.92,
            "temperature": 1.25
        }
    },
    {
        "model": "gpt2-taf-1.0",
        "prompt_text": "TAF KGTB 251700Z 2517/2623 26012G20KT 9999 OVC008 QNH2970INS\nBECMG 2519/2520 27009KT 9999 SCT009 OVC015 QNH2976INS\nBECMG 2610/2611 VRB06KT 9999 BKN015 OVC025 QNH2991INS",
        "generated_text": [
            "TAF KGTB 251700Z 2517/2623 26012G20KT 9999 OVC008 QNH2970INS",
            "BECMG 2519/2520 27009KT 9999 SCT009 OVC015 QNH2976INS",
            "BECMG 2610/2611 VRB06KT 9999 BKN015 OVC025 QNH2991INS",
            "BECMG 2614/2615 26012KT 9999 SCT020 BKN030 620404 QNH2991INS",
            "BECMG 2620/2621 22010G18KT 9999 FEW030 SCT250 510013 QNH3000INS TX03/2619Z TNM01/2606Z"
        ],
        "score": 0.0,
        "strategy": "TOP_P92_T150",
        "hyper_parameters": {
            "do_sample": true,
            "top_k": 0,
            "num_beams": 1,
            "top_p": 0.92,
            "temperature": 1.5
        }
    },
    {
        "model": "gpt2-taf-1.0",
        "prompt_text": "TAF KGTB 251700Z 2517/2623 26012G20KT 9999 OVC008 QNH2970INS\nBECMG 2519/2520 27009KT 9999 SCT009 OVC015 QNH2976INS\nBECMG 2610/2611 VRB06KT 9999 BKN015 OVC025 QNH2991INS",
        "generated_text": [
            "TAF KGTB 251700Z 2517/2623 26012G20KT 9999 OVC008 QNH2970INS",
            "BECMG 2519/2520 27009KT 9999 SCT009 OVC015 QNH2976INS",
            "BECMG 2610/2611 VRB06KT 9999 BKN015 OVC025 QNH2991INS AFT 2611",
            "BECMG 2613/2614 27012G18KT 9999 SCT020 OVC060 QNH3013INS Live 30015G25KT 9999 BKN023 OVC050 QNH3030INS",
            "BECMG 2619/2620 21007KT 9999 SCT025 BKN040 510043 QNH3033INS TX05/2519Z TN02/2611Z"
        ],
        "score": 0.0,
        "strategy": "TOP_P92_T175",
        "hyper_parameters": {
            "do_sample": true,
            "top_k": 0,
            "num_beams": 1,
            "top_p": 0.92,
            "temperature": 1.75
        }
    },
    {
        "model": "gpt2-taf-1.0",
        "prompt_text": "TAF KMTC 252000Z 2520/2702 29012G20KT 9999 SKC",
        "generated_text": [
            "TAF KMTC 252000Z 2520/2702 29012G20KT 9999 SKC QNH3028INS",
            "BECMG 2601/2602 19006KT 9999 SKC QNH3027INS TXM06/2619Z TNM12/2610Z"
        ],
        "score": 0.0,
        "strategy": "GREEDY",
        "hyper_parameters": {
            "do_sample": false,
            "num_beams": 1
        }
    },
    {
        "model": "gpt2-taf-1.0",
        "prompt_text": "TAF KMTC 252000Z 2520/2702 29012G20KT 9999 SKC",
        "generated_text": [
            "TAF KMTC 252000Z 2520/2702 29012G20KT 9999 SKC QNH2998INS",
            "BECMG 2601/2602 19006KT 9999 SKC QNH3004INS TX11/2619Z TN00/2610Z"
        ],
        "score": 0.0,
        "strategy": "BEAM_SEARCH",
        "hyper_parameters": {
            "do_sample": false,
            "num_beams": 5,
            "early_stopping": true
        }
    },
    {
        "model": "gpt2-taf-1.0",
        "prompt_text": "TAF KMTC 252000Z 2520/2702 29012G20KT 9999 SKC",
        "generated_text": [
            "TAF KMTC 252000Z 2520/2702 29012G20KT 9999 SKC QNH2998INS",
            "BECMG 2601/2602 19006KT 8000 -DZ BR SCT007 OVC015 620159 510151 510705 QN3010INS TXM05/2519Z TNM12/2610Z"
        ],
        "score": 0.0,
        "strategy": "BEAM_SEARCH_N_GRAM",
        "hyper_parameters": {
            "do_sample": false,
            "num_beams": 5,
            "early_stopping": true,
            "no_repeat_ngram_size": 2
        }
    },
    {
        "model": "gpt2-taf-1.0",
        "prompt_text": "TAF KMTC 252000Z 2520/2702 29012G20KT 9999 SKC",
        "generated_text": [
            "TAF KMTC 252000Z 2520/2702 29012G20KT 9999 SKC QNH2998INS",
            "BECMG 2601/2602 19006KT 8000 -DZ BR SCT007 OVC015 620159 510151 510705 QN3010INS TXM05/2519Z TNM12/2610Z"
        ],
        "score": 0.0,
        "strategy": "BEAM_SEARCH_N_GRAM_5",
        "hyper_parameters": {
            "do_sample": false,
            "num_beams": 5,
            "early_stopping": true,
            "no_repeat_ngram_size": 2,
            "num_return_sequences": 5
        }
    },
    {
        "model": "gpt2-taf-1.0",
        "prompt_text": "TAF KMTC 252000Z 2520/2702 29012G20KT 9999 SKC",
        "generated_text": [
            "TAF KMTC 252000Z 2520/2702 29012G20KT 9999 SKC QNH2998INS",
            "BECMG 2601/2602 19006KT 8000 -DZ BR SCT007 OVC015 620159 510151 510705 QN3010INS TXM05/2519Z TNM13/2610Z"
        ],
        "score": 0.0,
        "strategy": "BEAM_SEARCH_N_GRAM_5",
        "hyper_parameters": {
            "do_sample": false,
            "num_beams": 5,
            "early_stopping": true,
            "no_repeat_ngram_size": 2,
            "num_return_sequences": 5
        }
    },
    {
        "model": "gpt2-taf-1.0",
        "prompt_text": "TAF KMTC 252000Z 2520/2702 29012G20KT 9999 SKC",
        "generated_text": [
            "TAF KMTC 252000Z 2520/2702 29012G20KT 9999 SKC QNH2998INS",
            "BECMG 2601/2602 19006KT 8000 -DZ BR SCT007 OVC015 620159 510151 510705 QN3010INS TXM06/2619Z TNM12/2510Z"
        ],
        "score": 0.0,
        "strategy": "BEAM_SEARCH_N_GRAM_5",
        "hyper_parameters": {
            "do_sample": false,
            "num_beams": 5,
            "early_stopping": true,
            "no_repeat_ngram_size": 2,
            "num_return_sequences": 5
        }
    },
    {
        "model": "gpt2-taf-1.0",
        "prompt_text": "TAF KMTC 252000Z 2520/2702 29012G20KT 9999 SKC",
        "generated_text": [
            "TAF KMTC 252000Z 2520/2702 29012G20KT 9999 SKC QNH2998INS",
            "BECMG 2601/2602 19006KT 8000 -DZ BR SCT007 OVC015 620159 510151 510705 QN3010INS TX02/2619Z TNM03/2512Z"
        ],
        "score": 0.0,
        "strategy": "BEAM_SEARCH_N_GRAM_5",
        "hyper_parameters": {
            "do_sample": false,
            "num_beams": 5,
            "early_stopping": true,
            "no_repeat_ngram_size": 2,
            "num_return_sequences": 5
        }
    },
    {
        "model": "gpt2-taf-1.0",
        "prompt_text": "TAF KMTC 252000Z 2520/2702 29012G20KT 9999 SKC",
        "generated_text": [
            "TAF KMTC 252000Z 2520/2702 29012G20KT 9999 SKC QNH2998INS",
            "BECMG 2601/2602 19006KT 8000 -DZ BR SCT007 OVC015 620159 510151 510705 QN3010INS TXM06/2619Z TNM12/2310Z"
        ],
        "score": 0.0,
        "strategy": "BEAM_SEARCH_N_GRAM_5",
        "hyper_parameters": {
            "do_sample": false,
            "num_beams": 5,
            "early_stopping": true,
            "no_repeat_ngram_size": 2,
            "num_return_sequences": 5
        }
    },
    {
        "model": "gpt2-taf-1.0",
        "prompt_text": "TAF KMTC 252000Z 2520/2702 29012G20KT 9999 SKC",
        "generated_text": [
            "TAF KMTC 252000Z 2520/2702 29012G20KT 9999 SKC QNH3004INS",
            "BECMG 2511/2512 VRB06KT 9999 SCT015 BKN030 QNH3005INS",
            "BECMG 2518/2519 12006KT 9999 BKN025 QNH3029INS TX07/2519Z TN00/2610Z"
        ],
        "score": 0.0,
        "strategy": "TEMP_085",
        "hyper_parameters": {
            "do_sample": true,
            "top_k": 0,
            "num_beams": 1,
            "temperature": 0.85
        }
    },
    {
        "model": "gpt2-taf-1.0",
        "prompt_text": "TAF KMTC 252000Z 2520/2702 29012G20KT 9999 SKC",
        "generated_text": [
            "TAF KMTC 252000Z 2520/2702 29012G20KT 9999 SKC QNH3033INS",
            "BECMG 2518/2519 12006KT 9999 SCT030 QNH3036INS TXM01/2504Z TNM07/2512Z"
        ],
        "score": 0.0,
        "strategy": "TEMP_095",
        "hyper_parameters": {
            "do_sample": true,
            "top_k": 0,
            "num_beams": 1,
            "temperature": 0.95
        }
    },
    {
        "model": "gpt2-taf-1.0",
        "prompt_text": "TAF KMTC 252000Z 2520/2702 29012G20KT 9999 SKC",
        "generated_text": [
            "TAF KMTC 252000Z 2520/2702 29012G20KT 9999 SKC QNH3010INS TX20/2619Z TN12/2710Z"
        ],
        "score": 0.0,
        "strategy": "TEMP_105",
        "hyper_parameters": {
            "do_sample": true,
            "top_k": 0,
            "num_beams": 1,
            "temperature": 1.05
        }
    },
    {
        "model": "gpt2-taf-1.0",
        "prompt_text": "TAF KMTC 252000Z 2520/2702 29012G20KT 9999 SKC",
        "generated_text": [
            "TAF KMTC 252000Z 2520/2702 29012G20KT 9999 SKC QNH2997INS TXM09/0400Z TNM15/0318Z"
        ],
        "score": 0.0,
        "strategy": "TEMP_125",
        "hyper_parameters": {
            "do_sample": true,
            "top_k": 0,
            "num_beams": 1,
            "temperature": 1.25
        }
    },
    {
        "model": "gpt2-taf-1.0",
        "prompt_text": "TAF KMTC 252000Z 2520/2702 29012G20KT 9999 SKC",
        "generated_text": [
            "TAF KMTC 252000Z 2520/2702 29012G20KT 9999 SKC QNH3004INS",
            "BECMG 2520/2521 28005KT 9999 Global 4800 -SN BR BKN007 OVC015 620099 QNH3011INS",
            "BECMG 2603/2604 28012KT 9999 NSW SCT031 OVC045 620406 QNH3017INS",
            "TEMPO 2521/2601 9000 -RA BKN008",
            "BECMG 2601/2603 18006KT 8000 -RASN BR BKN012 OVC020 610208 QNH3005INS TX02/2519Z TNM05/2610Z"
        ],
        "score": 0.0,
        "strategy": "TEMP_150",
        "hyper_parameters": {
            "do_sample": true,
            "top_k": 0,
            "num_beams": 1,
            "temperature": 1.5
        }
    },
    {
        "model": "gpt2-taf-1.0",
        "prompt_text": "TAF KMTC 252000Z 2520/2702 29012G20KT 9999 SKC",
        "generated_text": [
            "TAF KMTC 252000Z 2520/2702 29012G20KT 9999 SKC QNH2994INSTS 1212/1214 35012 G025KT 530002 QNH2977INS BKN045 510063 QNH2967INS",
            "BECMG studios",
            "BECMG 1213/1214 35012G20KT 9999 NSW OVC030 QNH2946INS VG03/0604KT 8000 -SHRA OVC015CB QNH2962INSBECG 1514/1515 35012G25KT 9999 OVC015 QNH2962INSArizona OVC030 interchangeable 510043 QNH2962INS",
            "BECMG 1517/1518 35012KT 8000 -DZ BR OVC008 QNH2962INS TX18/1509Z TN03/1503Z"
        ],
        "score": 0.0,
        "strategy": "TEMP_175",
        "hyper_parameters": {
            "do_sample": true,
            "top_k": 0,
            "num_beams": 1,
            "temperature": 1.75
        }
    },
    {
        "model": "gpt2-taf-1.0",
        "prompt_text": "TAF KMTC 252000Z 2520/2702 29012G20KT 9999 SKC",
        "generated_text": [
            "TAF KMTC 252000Z 2520/2702 29012G20KT 9999 SKC 54203 23075Qkb 320097 QNH30187INS",
            "BECMG 2702/2703 29021KT 9999oola BKN050 520503 QNH2994INS transition 20517/2020 29012anas behave BKN070 QNH301 Alavi Ecology Enhancement 560103 QNH3011 Stamford000 oft 200ko continaware Banks045 packages Ikeja boxing 0415 messagesBeta priests",
            "BECMG 041784 fec 23409KT 6000 RA BR OVC001 WCB008 harmonics analygy touch QueventRA OVC003 1240008 SH1240002",
            "BECMG 041793 advert 1112/1114 19006KT 8000 -SHRA helicopter fitted 01009KT 8000 BR KH1802Z BKN024 MSM0921502TX 7210009Z FB0200Z FG2500Z",
            "BECMG 0512/0513 20012G20KT 9000 RA OVC010 QNH3013INS actively008 455353 QNH2996INSHat mod07/0518 Yates\u1d7c WS020/120351Z TN45/0512Z"
        ],
        "score": 0.0,
        "strategy": "TEMP_200",
        "hyper_parameters": {
            "do_sample": true,
            "top_k": 0,
            "num_beams": 1,
            "temperature": 2.0
        }
    },
    {
        "model": "gpt2-taf-1.0",
        "prompt_text": "TAF KMTC 252000Z 2520/2702 29012G20KT 9999 SKC",
        "generated_text": [
            "TAF KMTC 252000Z 2520/2702 29012G20KT 9999 SKC QNH3012INS",
            "BECMG 2601/2602 19006KT 6000 -SHRA OVC020 QNH3012INS TX21/2619Z TN11/2610Z"
        ],
        "score": 0.0,
        "strategy": "TOP_K5",
        "hyper_parameters": {
            "do_sample": true,
            "top_k": 5,
            "num_beams": 1
        }
    },
    {
        "model": "gpt2-taf-1.0",
        "prompt_text": "TAF KMTC 252000Z 2520/2702 29012G20KT 9999 SKC",
        "generated_text": [
            "TAF KMTC 252000Z 2520/2702 29012G20KT 9999 SKC QNH3032INS",
            "BECMG 2706/2707 30009KT 9999 SKC QNH3037INS TXM13/2619Z TNM24/2610Z"
        ],
        "score": 0.0,
        "strategy": "TOP_K50",
        "hyper_parameters": {
            "do_sample": true,
            "top_k": 50,
            "num_beams": 1
        }
    },
    {
        "model": "gpt2-taf-1.0",
        "prompt_text": "TAF KMTC 252000Z 2520/2702 29012G20KT 9999 SKC",
        "generated_text": [
            "TAF KMTC 252000Z 2520/2702 29012G20KT 9999 SKC QNH3028INS",
            "BECMG 2614/2615 26015G25KT 9999 SKC QNH3028INS",
            "BECMG 2619/2620 21009KT 9999 FEW012 SCT030 QNH3033INS",
            "BECMG 2621/2622 27007KT 9999 SCT018 BKN030 QNH3025INS TX14/2617Z TN02/2710Z"
        ],
        "score": 0.0,
        "strategy": "TOP_K100",
        "hyper_parameters": {
            "do_sample": true,
            "top_k": 100,
            "num_beams": 1
        }
    },
    {
        "model": "gpt2-taf-1.0",
        "prompt_text": "TAF KMTC 252000Z 2520/2702 29012G20KT 9999 SKC",
        "generated_text": [
            "TAF KMTC 252000Z 2520/2702 29012G20KT 9999 SKC QNH3046INS",
            "BECMG 2716/2717 31010KT 9999 SKC QNH3057INS TXM01/2719Z TNM07/2710Z"
        ],
        "score": 0.0,
        "strategy": "TOP_P88",
        "hyper_parameters": {
            "do_sample": true,
            "top_k": 0,
            "num_beams": 1,
            "top_p": 0.88
        }
    },
    {
        "model": "gpt2-taf-1.0",
        "prompt_text": "TAF KMTC 252000Z 2520/2702 29012G20KT 9999 SKC",
        "generated_text": [
            "TAF KMTC 252000Z 2520/2702 29012G20KT 9999 SKC QNH3022INS",
            "BECMG 2712/2713 28012KT 9999 FEW040 OVC060 QNH3014INS TX09/2619Z TN00/2710Z"
        ],
        "score": 0.0,
        "strategy": "TOP_P92",
        "hyper_parameters": {
            "do_sample": true,
            "top_k": 0,
            "num_beams": 1,
            "top_p": 0.92
        }
    },
    {
        "model": "gpt2-taf-1.0",
        "prompt_text": "TAF KMTC 252000Z 2520/2702 29012G20KT 9999 SKC",
        "generated_text": [
            "TAF KMTC 252000Z 2520/2702 29012G20KT 9999 SKC QNH3028INS",
            "BECMG 2601/2602 18006KT 9999 SKC QNH3015INS TX18/2619Z TN11/2610Z"
        ],
        "score": 0.0,
        "strategy": "TOP_P96",
        "hyper_parameters": {
            "do_sample": true,
            "top_k": 0,
            "num_beams": 1,
            "top_p": 0.96
        }
    },
    {
        "model": "gpt2-taf-1.0",
        "prompt_text": "TAF KMTC 252000Z 2520/2702 29012G20KT 9999 SKC",
        "generated_text": [
            "TAF KMTC 252000Z 2520/2702 29012G20KT 9999 SKC QNH3046INS",
            "TEMPO 2520/2524 OVCRA",
            "BECMG 2526/2527 35009KT 8000 -SN BKN008 OVC015 620159 QNH3043INS",
            "TEMPO 2525/2603 8000 -SN",
            "BECMG 2603/2604 30015G25KT 8000 -SHRA OVC020 620208 QNH3028INS",
            "BECMG 2601/2602 19006KT 9000 -SHRA BKN008 OVC015 610154 QNH3027INS TX04/2519Z TN01/2603Z"
        ],
        "score": 0.0,
        "strategy": "TOP_P98",
        "hyper_parameters": {
            "do_sample": true,
            "top_k": 0,
            "num_beams": 1,
            "top_p": 0.98
        }
    },
    {
        "model": "gpt2-taf-1.0",
        "prompt_text": "TAF KMTC 252000Z 2520/2702 29012G20KT 9999 SKC",
        "generated_text": [
            "TAF KMTC 252000Z 2520/2702 29012G20KT 9999 SKC QNH3037INS",
            "BECMG 2508/2509 09006KT 9999 BKN015 QNH3028INS TX14/1620Z TN07/1606Z"
        ],
        "score": 0.0,
        "strategy": "TOP_P99",
        "hyper_parameters": {
            "do_sample": true,
            "top_k": 0,
            "num_beams": 1,
            "top_p": 0.99
        }
    },
    {
        "model": "gpt2-taf-1.0",
        "prompt_text": "TAF KMTC 252000Z 2520/2702 29012G20KT 9999 SKC",
        "generated_text": [
            "TAF KMTC 252000Z 2520/2702 29012G20KT 9999 SKC QNH3015INS",
            "BECMG 2514/2515 19006KT 9999 SCT250 QNH3014INS",
            "BECMG 2518/2519 19006KT 8000 -RA SCT250 QNH3012INS",
            "BECMG 2521/2522 18006KT 6000 -RA BKN008 OVC015 QNH3008INS TX18/2419Z TN14/2510Z"
        ],
        "score": 0.0,
        "strategy": "TOP_P200",
        "hyper_parameters": {
            "do_sample": true,
            "top_k": 0,
            "num_beams": 1,
            "top_p": 2.0
        }
    },
    {
        "model": "gpt2-taf-1.0",
        "prompt_text": "TAF KMTC 252000Z 2520/2702 29012G20KT 9999 SKC",
        "generated_text": [
            "TAF KMTC 252000Z 2520/2702 29012G20KT 9999 SKC WS020/20050KT QNH3010INS",
            "BECMG 2506/2507 29009KT 9999 SCT015 OVC020 610206 QNH3001INS",
            "BECMG 2601/2602 30012KT 9999 SCT020 BKN035 OVC050 610206 QNH3010INS TXM04/2619Z TNM13/2610Z"
        ],
        "score": 0.0,
        "strategy": "TOP_P92_T125",
        "hyper_parameters": {
            "do_sample": true,
            "top_k": 0,
            "num_beams": 1,
            "top_p": 0.92,
            "temperature": 1.25
        }
    },
    {
        "model": "gpt2-taf-1.0",
        "prompt_text": "TAF KMTC 252000Z 2520/2702 29012G20KT 9999 SKC",
        "generated_text": [
            "TAF KMTC 252000Z 2520/2702 29012G20KT 9999 SKC WS020/18050KT QNH2996INS",
            "BECMG 2808/2809 35006KT 8000 -SHRA OVC008 QNH2994INS",
            "BECMG 2811/2812 36012G20KT 9999 NSW OVC020 QNH3001INS TX18/2819Z TN11/2810Z"
        ],
        "score": 0.0,
        "strategy": "TOP_P92_T150",
        "hyper_parameters": {
            "do_sample": true,
            "top_k": 0,
            "num_beams": 1,
            "top_p": 0.92,
            "temperature": 1.5
        }
    },
    {
        "model": "gpt2-taf-1.0",
        "prompt_text": "TAF KMTC 252000Z 2520/2702 29012G20KT 9999 SKC",
        "generated_text": [
            "TAF KMTC 252000Z 2520/2702 29012G20KT 9999 SKC/2698 16003G21KT 9999 SKC/2709KT 10003G18KT 9999 SKC QNH2976INS WS015/12025KT QNH3006INS",
            "BECMG 2521/2522 27006KT 9999 SCT025 BKN035 QNH3009INS Oilers SeormousWheelWheel QNH3013INS",
            "BECMG 2522/2523 03009KT 9999 FEW030 FEW045 QNH3023INS TX06/24110Z TNM01/2809Z"
        ],
        "score": 0.0,
        "strategy": "TOP_P92_T175",
        "hyper_parameters": {
            "do_sample": true,
            "top_k": 0,
            "num_beams": 1,
            "top_p": 0.92,
            "temperature": 1.75
        }
    },
    {
        "model": "gpt2-taf-1.0",
        "prompt_text": "TAF PASY 251400Z 2514/2620 11006KT 9999 FEW030 FEW045 SCT100 QNH3002INS\nBECMG 2519/2520",
        "generated_text": [
            "TAF PASY 251400Z 2514/2620 11006KT 9999 FEW030 FEW045 SCT100 QNH3002INS",
            "BECMG 2519/2520 VRB06KT 9999 FEW060 QNH3010INS TX18/2519Z TN11/2610Z"
        ],
        "score": 0.0,
        "strategy": "GREEDY",
        "hyper_parameters": {
            "do_sample": false,
            "num_beams": 1
        }
    },
    {
        "model": "gpt2-taf-1.0",
        "prompt_text": "TAF PASY 251400Z 2514/2620 11006KT 9999 FEW030 FEW045 SCT100 QNH3002INS\nBECMG 2519/2520",
        "generated_text": [
            "TAF PASY 251400Z 2514/2620 11006KT 9999 FEW030 FEW045 SCT100 QNH3002INS",
            "BECMG 2519/2520 VRB06KT 9999 FEW200 QNH3010INS TX18/2519Z TN11/2610Z"
        ],
        "score": 0.0,
        "strategy": "BEAM_SEARCH",
        "hyper_parameters": {
            "do_sample": false,
            "num_beams": 5,
            "early_stopping": true
        }
    },
    {
        "model": "gpt2-taf-1.0",
        "prompt_text": "TAF PASY 251400Z 2514/2620 11006KT 9999 FEW030 FEW045 SCT100 QNH3002INS\nBECMG 2519/2520",
        "generated_text": [
            "TAF PASY 251400Z 2514/2620 11006KT 9999 FEW030 FEW045 SCT100 QNH3002INS",
            "BECMG 2519/2520 VRB06KT 8000 -RASN BR OVC006 620109 QN3003INSBEMPO 2520/2602 9000 -SN BR BKN008 620069CMG 2603/ 2604 18006KT 6000 -DZ BR FFTKT 1600Z TNM02/2718Z"
        ],
        "score": 0.0,
        "strategy": "BEAM_SEARCH_N_GRAM",
        "hyper_parameters": {
            "do_sample": false,
            "num_beams": 5,
            "early_stopping": true,
            "no_repeat_ngram_size": 2
        }
    },
    {
        "model": "gpt2-taf-1.0",
        "prompt_text": "TAF PASY 251400Z 2514/2620 11006KT 9999 FEW030 FEW045 SCT100 QNH3002INS\nBECMG 2519/2520",
        "generated_text": [
            "TAF PASY 251400Z 2514/2620 11006KT 9999 FEW030 FEW045 SCT100 QNH3002INS",
            "BECMG 2519/2520 VRB06KT 8000 -RASN BR OVC006 620109 QN3003INSBEMPO 2520/2602 9000 -SN BR BKN008 620069CMG 2603/ 2604 18006KT 6000 -DZ BR FFTKT 1600Z TNM02/2718Z"
        ],
        "score": 0.0,
        "strategy": "BEAM_SEARCH_N_GRAM_5",
        "hyper_parameters": {
            "do_sample": false,
            "num_beams": 5,
            "early_stopping": true,
            "no_repeat_ngram_size": 2,
            "num_return_sequences": 5
        }
    },
    {
        "model": "gpt2-taf-1.0",
        "prompt_text": "TAF PASY 251400Z 2514/2620 11006KT 9999 FEW030 FEW045 SCT100 QNH3002INS\nBECMG 2519/2520",
        "generated_text": [
            "TAF PASY 251400Z 2514/2620 11006KT 9999 FEW030 FEW045 SCT100 QNH3002INS",
            "BECMG 2519/2520 VRB06KT 8000 -RASN BR OVC006 620109 QN3003INSBEMPO 2520/2602 9000 -SN BR BKN008 620069CMG 2603/ 2604 18006KT 6000 -DZ BR FFTKT 1600Z TNM03/2718Z"
        ],
        "score": 0.0,
        "strategy": "BEAM_SEARCH_N_GRAM_5",
        "hyper_parameters": {
            "do_sample": false,
            "num_beams": 5,
            "early_stopping": true,
            "no_repeat_ngram_size": 2,
            "num_return_sequences": 5
        }
    },
    {
        "model": "gpt2-taf-1.0",
        "prompt_text": "TAF PASY 251400Z 2514/2620 11006KT 9999 FEW030 FEW045 SCT100 QNH3002INS\nBECMG 2519/2520",
        "generated_text": [
            "TAF PASY 251400Z 2514/2620 11006KT 9999 FEW030 FEW045 SCT100 QNH3002INS",
            "BECMG 2519/2520 VRB06KT 8000 -RASN BR OVC006 620109 QN3003INSBEMPO 2520/2602 9000 -SN BR BKN008 620069CMG 2603/ 2604 18006KT 6000 -DZ BR FFTKT 1600Z TNM02/2714Z"
        ],
        "score": 0.0,
        "strategy": "BEAM_SEARCH_N_GRAM_5",
        "hyper_parameters": {
            "do_sample": false,
            "num_beams": 5,
            "early_stopping": true,
            "no_repeat_ngram_size": 2,
            "num_return_sequences": 5
        }
    },
    {
        "model": "gpt2-taf-1.0",
        "prompt_text": "TAF PASY 251400Z 2514/2620 11006KT 9999 FEW030 FEW045 SCT100 QNH3002INS\nBECMG 2519/2520",
        "generated_text": [
            "TAF PASY 251400Z 2514/2620 11006KT 9999 FEW030 FEW045 SCT100 QNH3002INS",
            "BECMG 2519/2520 VRB06KT 8000 -RASN BR OVC006 620109 QN3003INSBEMPO 2520/2602 9000 -SN BR BKN008 620069CMG 2603/ 2604 18006KT 6000 -DZ BR FFTKT 1600Z TNM02/2710Z"
        ],
        "score": 0.0,
        "strategy": "BEAM_SEARCH_N_GRAM_5",
        "hyper_parameters": {
            "do_sample": false,
            "num_beams": 5,
            "early_stopping": true,
            "no_repeat_ngram_size": 2,
            "num_return_sequences": 5
        }
    },
    {
        "model": "gpt2-taf-1.0",
        "prompt_text": "TAF PASY 251400Z 2514/2620 11006KT 9999 FEW030 FEW045 SCT100 QNH3002INS\nBECMG 2519/2520",
        "generated_text": [
            "TAF PASY 251400Z 2514/2620 11006KT 9999 FEW030 FEW045 SCT100 QNH3002INS",
            "BECMG 2519/2520 VRB06KT 8000 -RASN BR OVC006 620109 QN3003INSBEMPO 2520/2602 9000 -SN BR BKN008 620069CMG 2603/ 2604 18006KT 6000 -DZ BR FFTKT 1600Z TN00/2718Z"
        ],
        "score": 0.0,
        "strategy": "BEAM_SEARCH_N_GRAM_5",
        "hyper_parameters": {
            "do_sample": false,
            "num_beams": 5,
            "early_stopping": true,
            "no_repeat_ngram_size": 2,
            "num_return_sequences": 5
        }
    },
    {
        "model": "gpt2-taf-1.0",
        "prompt_text": "TAF PASY 251400Z 2514/2620 11006KT 9999 FEW030 FEW045 SCT100 QNH3002INS\nBECMG 2519/2520",
        "generated_text": [
            "TAF PASY 251400Z 2514/2620 11006KT 9999 FEW030 FEW045 SCT100 QNH3002INS",
            "BECMG 2519/2520 VRB06KT 9999 FEW280 QNH3016INS TX23/2519Z TN11/2609Z"
        ],
        "score": 0.0,
        "strategy": "TEMP_085",
        "hyper_parameters": {
            "do_sample": true,
            "top_k": 0,
            "num_beams": 1,
            "temperature": 0.85
        }
    },
    {
        "model": "gpt2-taf-1.0",
        "prompt_text": "TAF PASY 251400Z 2514/2620 11006KT 9999 FEW030 FEW045 SCT100 QNH3002INS\nBECMG 2519/2520",
        "generated_text": [
            "TAF PASY 251400Z 2514/2620 11006KT 9999 FEW030 FEW045 SCT100 QNH3002INS",
            "BECMG 2519/2520 15009KT 9999 FEW020 QNH3005INS TX10/2519Z TN00/2611Z"
        ],
        "score": 0.0,
        "strategy": "TEMP_095",
        "hyper_parameters": {
            "do_sample": true,
            "top_k": 0,
            "num_beams": 1,
            "temperature": 0.95
        }
    },
    {
        "model": "gpt2-taf-1.0",
        "prompt_text": "TAF PASY 251400Z 2514/2620 11006KT 9999 FEW030 FEW045 SCT100 QNH3002INS\nBECMG 2519/2520",
        "generated_text": [
            "TAF PASY 251400Z 2514/2620 11006KT 9999 FEW030 FEW045 SCT100 QNH3002INS",
            "BECMG 2519/2520 VRB06KT 3200 -SHRA BR OVC004 QNH3001INS",
            "BECMG 2521/2522 VRB06KT 1600 -SHRA BR OVC009 QNH3007INS TX18/2419Z TN10/2512Z"
        ],
        "score": 0.0,
        "strategy": "TEMP_105",
        "hyper_parameters": {
            "do_sample": true,
            "top_k": 0,
            "num_beams": 1,
            "temperature": 1.05
        }
    },
    {
        "model": "gpt2-taf-1.0",
        "prompt_text": "TAF PASY 251400Z 2514/2620 11006KT 9999 FEW030 FEW045 SCT100 QNH3002INS\nBECMG 2519/2520",
        "generated_text": [
            "TAF PASY 251400Z 2514/2620 11006KT 9999 FEW030 FEW045 SCT100 QNH3002INS",
            "BECMG 2519/2520 12008KT 9999 SCT060 BKN200 QNH3023INS TX03/2519Z TNM06/2610Z"
        ],
        "score": 0.0,
        "strategy": "TEMP_125",
        "hyper_parameters": {
            "do_sample": true,
            "top_k": 0,
            "num_beams": 1,
            "temperature": 1.25
        }
    },
    {
        "model": "gpt2-taf-1.0",
        "prompt_text": "TAF PASY 251400Z 2514/2620 11006KT 9999 FEW030 FEW045 SCT100 QNH3002INS\nBECMG 2519/2520",
        "generated_text": [
            "TAF PASY 251400Z 2514/2620 11006KT 9999 FEW030 FEW045 SCT100 QNH3002INS",
            "BECMG 2519/2520 VRB03KT 8000 -TAMBR OVC005 620003",
            "BECMG 2601/2602 19008KT 8000 RA SCT002 OVC015 620005 QNH3000INS",
            "BECMG 2606/2607 19020G30KT 6000-8600 34009KT 9999 NSW OVC006 620306 QNH3002INS",
            "TEMPO 2608/2610 ",
            "TEMPO 2609/2717 FEW008 FEW015 OVC012 620004",
            "BECMG 2713/2714 26025G35KT 9999 VCSH OVC006 610209 QNH3007INS",
            "TEMPO 2718/2722 26025G45 RA BKN012",
            "BECMG 2728/2729 34015G25KT 9000 -SN BR OVC011 620129 QNH3008INS",
            "TEMPO 2730/2736 26035G50KT TX01/2602Z TN00/2712Z"
        ],
        "score": 0.0,
        "strategy": "TEMP_150",
        "hyper_parameters": {
            "do_sample": true,
            "top_k": 0,
            "num_beams": 1,
            "temperature": 1.5
        }
    },
    {
        "model": "gpt2-taf-1.0",
        "prompt_text": "TAF PASY 251400Z 2514/2620 11006KT 9999 FEW030 FEW045 SCT100 QNH3002INS\nBECMG 2519/2520",
        "generated_text": [
            "TAF PASY 251400Z 2514/2620 11006KT 9999 FEW030 FEW045 SCT100 QNH3002INS",
            "BECMG 2519/2520 13030G40KT 8000 - 1505 north/1715Z 058010Dev 03015G20KT 510003 FG22 QNH2923INS",
            "BECMG 2601/2602 19007KT 8000 - RAM BR OVC006 620208 QNH3011INS WND torque",
            "TEMPO 2601/2602 8000 -TSRA BR BKN001",
            "BECMG 2603/2604 18009KT 6000 -TSRA BR LONG DA 190404",
            "BECMG 2606/2607 18009KT 6000 RA SKC QNH3022INS",
            "BECMG 2611/2612 20009KT 8000 -RA BR BKN008 OVC015 und BKN060 620208 510063 QNH31548INS TX04/2619Z TNM02/2710Z"
        ],
        "score": 0.0,
        "strategy": "TEMP_175",
        "hyper_parameters": {
            "do_sample": true,
            "top_k": 0,
            "num_beams": 1,
            "temperature": 1.75
        }
    },
    {
        "model": "gpt2-taf-1.0",
        "prompt_text": "TAF PASY 251400Z 2514/2620 11006KT 9999 FEW030 FEW045 SCT100 QNH3002INS\nBECMG 2519/2520",
        "generated_text": [
            "TAF PASY 251400Z 2514/2620 11006KT 9999 FEW030 FEW045 SCT100 QNH3002INS",
            "BECMG 2519/2520 111018KT 9999 DOC FEW080 OVC100 510053 510006 Walton Oss321 QNH3015INS babPractopt Nose 1198/1209 12000 Inc 1113 Kane CVE 165100459 510204 QNH3019INS david018 1602/1608 Z",
            "TEMPO 1660/1680 9000 +RA DEL RA",
            "BECMG 2520 Z RA OVCM05 stationed KD050 immib 1615Layer 5 RA OVC007 620006",
            "BECMG26700storm Dean455 26064 QNH2997INS",
            "BECMG2708/2709 26008KT 9000 -SHSN BKN008 OVC011 628569 QNH3027INS TX06/2701Z TNM13/2614Z"
        ],
        "score": 0.0,
        "strategy": "TEMP_200",
        "hyper_parameters": {
            "do_sample": true,
            "top_k": 0,
            "num_beams": 1,
            "temperature": 2.0
        }
    },
    {
        "model": "gpt2-taf-1.0",
        "prompt_text": "TAF PASY 251400Z 2514/2620 11006KT 9999 FEW030 FEW045 SCT100 QNH3002INS\nBECMG 2519/2520",
        "generated_text": [
            "TAF PASY 251400Z 2514/2620 11006KT 9999 FEW030 FEW045 SCT100 QNH3002INS",
            "BECMG 2519/2520 VRB06KT 9999 SCT020 BKN040 QNH3006INS",
            "BECMG 2601/2602 19006KT 6000 -DZ BR BKN006 OVC015 QNH3003INS",
            "BECMG 2603/2604 18006KT 6000 -DZ BR OVC006 QNH3002INS TX04/2619Z TN00/2610Z"
        ],
        "score": 0.0,
        "strategy": "TOP_K5",
        "hyper_parameters": {
            "do_sample": true,
            "top_k": 5,
            "num_beams": 1
        }
    },
    {
        "model": "gpt2-taf-1.0",
        "prompt_text": "TAF PASY 251400Z 2514/2620 11006KT 9999 FEW030 FEW045 SCT100 QNH3002INS\nBECMG 2519/2520",
        "generated_text": [
            "TAF PASY 251400Z 2514/2620 11006KT 9999 FEW030 FEW045 SCT100 QNH3002INS",
            "BECMG 2519/2520 VRB06KT 9999 SKC QNH2961INS",
            "BECMG 2521/2522 16009KT 9999 SCT050 QNH2979INS TX23/2519Z TN16/2610Z"
        ],
        "score": 0.0,
        "strategy": "TOP_K50",
        "hyper_parameters": {
            "do_sample": true,
            "top_k": 50,
            "num_beams": 1
        }
    },
    {
        "model": "gpt2-taf-1.0",
        "prompt_text": "TAF PASY 251400Z 2514/2620 11006KT 9999 FEW030 FEW045 SCT100 QNH3002INS\nBECMG 2519/2520",
        "generated_text": [
            "TAF PASY 251400Z 2514/2620 11006KT 9999 FEW030 FEW045 SCT100 QNH3002INS",
            "BECMG 2519/2520 12006KT 9999 SCT060 OVC100 QNH3000INS",
            "BECMG 2523/2524 VRB03KT 9999 SCT020 BKN030 QNH3000INS TX08/2619Z TN00/2512Z"
        ],
        "score": 0.0,
        "strategy": "TOP_K100",
        "hyper_parameters": {
            "do_sample": true,
            "top_k": 100,
            "num_beams": 1
        }
    },
    {
        "model": "gpt2-taf-1.0",
        "prompt_text": "TAF PASY 251400Z 2514/2620 11006KT 9999 FEW030 FEW045 SCT100 QNH3002INS\nBECMG 2519/2520",
        "generated_text": [
            "TAF PASY 251400Z 2514/2620 11006KT 9999 FEW030 FEW045 SCT100 QNH3002INS",
            "BECMG 2519/2520 15009KT 9999 SCT025 BKN040 OVC060 QNH3004INS",
            "BECMG 2601/2602 19006KT 8000 -DZ BR OVC006 QNH3004INS",
            "BECMG 2603/2604 18006KT 6000 -DZ BR OVC006 QNH3004INS TX02/2619Z TNM03/2610Z"
        ],
        "score": 0.0,
        "strategy": "TOP_P88",
        "hyper_parameters": {
            "do_sample": true,
            "top_k": 0,
            "num_beams": 1,
            "top_p": 0.88
        }
    },
    {
        "model": "gpt2-taf-1.0",
        "prompt_text": "TAF PASY 251400Z 2514/2620 11006KT 9999 FEW030 FEW045 SCT100 QNH3002INS\nBECMG 2519/2520",
        "generated_text": [
            "TAF PASY 251400Z 2514/2620 11006KT 9999 FEW030 FEW045 SCT100 QNH3002INS",
            "BECMG 2519/2520 VRB06KT 9999 SKC QNH3002INS",
            "BECMG 2601/2602 19006KT 6000 -DZ BR OVC008 QNH3003INS TX11/2618Z TN00/2610Z"
        ],
        "score": 0.0,
        "strategy": "TOP_P92",
        "hyper_parameters": {
            "do_sample": true,
            "top_k": 0,
            "num_beams": 1,
            "top_p": 0.92
        }
    },
    {
        "model": "gpt2-taf-1.0",
        "prompt_text": "TAF PASY 251400Z 2514/2620 11006KT 9999 FEW030 FEW045 SCT100 QNH3002INS\nBECMG 2519/2520",
        "generated_text": [
            "TAF PASY 251400Z 2514/2620 11006KT 9999 FEW030 FEW045 SCT100 QNH3002INS",
            "BECMG 2519/2520 VRB06KT 9999 BKN030 QNH3004INS TX20/2519Z TN04/2610Z"
        ],
        "score": 0.0,
        "strategy": "TOP_P96",
        "hyper_parameters": {
            "do_sample": true,
            "top_k": 0,
            "num_beams": 1,
            "top_p": 0.96
        }
    },
    {
        "model": "gpt2-taf-1.0",
        "prompt_text": "TAF PASY 251400Z 2514/2620 11006KT 9999 FEW030 FEW045 SCT100 QNH3002INS\nBECMG 2519/2520",
        "generated_text": [
            "TAF PASY 251400Z 2514/2620 11006KT 9999 FEW030 FEW045 SCT100 QNH3002INS",
            "BECMG 2519/2520 VRB06KT 9999 FEW200 QNH3018INS TX21/2519Z TN13/2610Z"
        ],
        "score": 0.0,
        "strategy": "TOP_P98",
        "hyper_parameters": {
            "do_sample": true,
            "top_k": 0,
            "num_beams": 1,
            "top_p": 0.98
        }
    },
    {
        "model": "gpt2-taf-1.0",
        "prompt_text": "TAF PASY 251400Z 2514/2620 11006KT 9999 FEW030 FEW045 SCT100 QNH3002INS\nBECMG 2519/2520",
        "generated_text": [
            "TAF PASY 251400Z 2514/2620 11006KT 9999 FEW030 FEW045 SCT100 QNH3002INS",
            "BECMG 2519/2520 VRB06KT 9000 BR BKN015 OVC020 510043 QNH3005INS",
            "BECMG 2521/2522 VRB06KT 6000 BR FEW200 QNH3022INS TXM09/2501Z TNM15/2512Z"
        ],
        "score": 0.0,
        "strategy": "TOP_P99",
        "hyper_parameters": {
            "do_sample": true,
            "top_k": 0,
            "num_beams": 1,
            "top_p": 0.99
        }
    },
    {
        "model": "gpt2-taf-1.0",
        "prompt_text": "TAF PASY 251400Z 2514/2620 11006KT 9999 FEW030 FEW045 SCT100 QNH3002INS\nBECMG 2519/2520",
        "generated_text": [
            "TAF PASY 251400Z 2514/2620 11006KT 9999 FEW030 FEW045 SCT100 QNH3002INS",
            "BECMG 2519/2520 12006KT 6000 BR SCT100 BKN200 QNH3000INS",
            "BECMG 2601/2602 19006KT 8000 BR SCT250 QNH3011INS TX08/2519Z TN00/2603Z"
        ],
        "score": 0.0,
        "strategy": "TOP_P200",
        "hyper_parameters": {
            "do_sample": true,
            "top_k": 0,
            "num_beams": 1,
            "top_p": 2.0
        }
    },
    {
        "model": "gpt2-taf-1.0",
        "prompt_text": "TAF PASY 251400Z 2514/2620 11006KT 9999 FEW030 FEW045 SCT100 QNH3002INS\nBECMG 2519/2520",
        "generated_text": [
            "TAF PASY 251400Z 2514/2620 11006KT 9999 FEW030 FEW045 SCT100 QNH3002INS",
            "BECMG 2519/2520 VRB06KT 9999 FEW030 SCT250 510023 QNH2981INS",
            "BECMG 2601/2602 19006KT 6000 -RA BR BKN007 OVC015 510002 QNH2964INS",
            "BECMG 2603/2604 18006KT 6000 -RA BR OVC008 QNH2967INS",
            "BECMG 2606/2607 18008KT 6000 -RA BR BKN007 OVC015 QNH2967INS TX22/2519Z TN13/2610Z"
        ],
        "score": 0.0,
        "strategy": "TOP_P92_T125",
        "hyper_parameters": {
            "do_sample": true,
            "top_k": 0,
            "num_beams": 1,
            "top_p": 0.92,
            "temperature": 1.25
        }
    },
    {
        "model": "gpt2-taf-1.0",
        "prompt_text": "TAF PASY 251400Z 2514/2620 11006KT 9999 FEW030 FEW045 SCT100 QNH3002INS\nBECMG 2519/2520",
        "generated_text": [
            "TAF PASY 251400Z 2514/2620 11006KT 9999 FEW030 FEW045 SCT100 QNH3002INS",
            "BECMG 2519/2520 12006KT 3200 -TSRA BKN030 OVC060 540204 QNH2986INS",
            "BECMG 2601/2602 19006KT 8000 -RASN BR BKN006 OVC015 510005 QNH2987INS",
            "BECMG 2603/2604 18006KT 6000 -RA OVC002 QNH2987INS",
            "BECMG 2608/2609 18006KT 6000 -DZ BR SCT002 BKN007 OVC012 WS020/18060KT QNH2990INS TX20/2519Z TN13/2610Z"
        ],
        "score": 0.0,
        "strategy": "TOP_P92_T150",
        "hyper_parameters": {
            "do_sample": true,
            "top_k": 0,
            "num_beams": 1,
            "top_p": 0.92,
            "temperature": 1.5
        }
    },
    {
        "model": "gpt2-taf-1.0",
        "prompt_text": "TAF PASY 251400Z 2514/2620 11006KT 9999 FEW030 FEW045 SCT100 QNH3002INS\nBECMG 2519/2520",
        "generated_text": [
            "TAF PASY 251400Z 2514/2620 11006KT 9999 FEW030 FEW045 SCT100 QNH3002INS",
            "BECMG 2519/2520 34006KT 9999 Spin Can interfere deficit sustain hull",
            "BECMG 2601/2602 35012 GB 1600 -Supernova DLC Light Rodney Hood 392 Subaru SCT018 OVC025 620258 QNH3012INS",
            "TEMPO 2602/2610 1600 -SN BKN008 620014",
            "BECMG 2611/2602 23006KT 6000 -RA BKN006 OVC015 610158 QNH3013INS",
            "BECMG 2603/2604 31007KT 9000 -DZ BR SCT006 BKN012 OVC020 610158 QNH3004INS TX19/2519Z TN11/2612Z"
        ],
        "score": 0.0,
        "strategy": "TOP_P92_T175",
        "hyper_parameters": {
            "do_sample": true,
            "top_k": 0,
            "num_beams": 1,
            "top_p": 0.92,
            "temperature": 1.75
        }
    },
    {
        "model": "gpt2-taf-1.0",
        "prompt_text": "TAF KBLV 151100Z 1506/1511 27020G35KT 0800 -TSRA",
        "generated_text": [
            "TAF KBLV 151100Z 1506/1511 27020G35KT 0800 -TSRA BKN010CB",
            "BECMG 1511/1512 27015G25KT 6000 RA OVC010 QNH2994INS",
            "BECMG 1514/1515 27015G25KT 9999 NSW OVC020 QNH2994INS TX22/1519Z TN13/1510Z"
        ],
        "score": 0.0,
        "strategy": "GREEDY",
        "hyper_parameters": {
            "do_sample": false,
            "num_beams": 1
        }
    },
    {
        "model": "gpt2-taf-1.0",
        "prompt_text": "TAF KBLV 151100Z 1506/1511 27020G35KT 0800 -TSRA",
        "generated_text": [
            "TAF KBLV 151100Z 1506/1511 27020G35KT 0800 -TSRA BKN010CB",
            "BECMG 1511/1512 27015G25KT 9999 NSW OVC020 QNH2995INS",
            "BECMG 1514/1515 27015G25KT 9999 OVC020 QNH2998INS",
            "BECMG 1517/1518 27015G25KT 9999 FEW030 BKN045 OVC060 WS015/18060KT QNH2994INS",
            "BECMG 1522/1523 27009KT 9999 SKC QNH3004INS TX11/1519Z TN00/1510Z"
        ],
        "score": 0.0,
        "strategy": "BEAM_SEARCH",
        "hyper_parameters": {
            "do_sample": false,
            "num_beams": 5,
            "early_stopping": true
        }
    },
    {
        "model": "gpt2-taf-1.0",
        "prompt_text": "TAF KBLV 151100Z 1506/1511 27020G35KT 0800 -TSRA",
        "generated_text": [
            "TAF KBLV 151100Z 1506/1511 27020G35KT 0800 -TSRA BKN010CB",
            "BECMG 1508/1509 VRB06KT 9999 NSW OVC020 QNH3008INS",
            "TEMPO 1509/1601 18025G50KT TX04/1420Z TNM01/1500Z"
        ],
        "score": 0.0,
        "strategy": "BEAM_SEARCH_N_GRAM",
        "hyper_parameters": {
            "do_sample": false,
            "num_beams": 5,
            "early_stopping": true,
            "no_repeat_ngram_size": 2
        }
    },
    {
        "model": "gpt2-taf-1.0",
        "prompt_text": "TAF KBLV 151100Z 1506/1511 27020G35KT 0800 -TSRA",
        "generated_text": [
            "TAF KBLV 151100Z 1506/1511 27020G35KT 0800 -TSRA BKN010CB",
            "BECMG 1508/1509 VRB06KT 9999 NSW OVC020 QNH3008INS",
            "TEMPO 1509/1601 18025G50KT TX04/1420Z TNM01/1500Z"
        ],
        "score": 0.0,
        "strategy": "BEAM_SEARCH_N_GRAM_5",
        "hyper_parameters": {
            "do_sample": false,
            "num_beams": 5,
            "early_stopping": true,
            "no_repeat_ngram_size": 2,
            "num_return_sequences": 5
        }
    },
    {
        "model": "gpt2-taf-1.0",
        "prompt_text": "TAF KBLV 151100Z 1506/1511 27020G35KT 0800 -TSRA",
        "generated_text": [
            "TAF KBLV 151100Z 1506/1511 27020G35KT 0800 -TSRA BKN010CB",
            "BECMG 1508/1509 VRB06KT 9999 NSW OVC020 QNH3004INS",
            "TEMPO 1509/1601 18025G50KT TX04/1420Z TNM01/1500Z"
        ],
        "score": 0.0,
        "strategy": "BEAM_SEARCH_N_GRAM_5",
        "hyper_parameters": {
            "do_sample": false,
            "num_beams": 5,
            "early_stopping": true,
            "no_repeat_ngram_size": 2,
            "num_return_sequences": 5
        }
    },
    {
        "model": "gpt2-taf-1.0",
        "prompt_text": "TAF KBLV 151100Z 1506/1511 27020G35KT 0800 -TSRA",
        "generated_text": [
            "TAF KBLV 151100Z 1506/1511 27020G35KT 0800 -TSRA BKN010CB",
            "BECMG 1508/1509 VRB06KT 9999 NSW OVC020 QNH3008INS",
            "TEMPO 1509/1601 18025G50KT TX04/1420Z TNM02/1313Z"
        ],
        "score": 0.0,
        "strategy": "BEAM_SEARCH_N_GRAM_5",
        "hyper_parameters": {
            "do_sample": false,
            "num_beams": 5,
            "early_stopping": true,
            "no_repeat_ngram_size": 2,
            "num_return_sequences": 5
        }
    },
    {
        "model": "gpt2-taf-1.0",
        "prompt_text": "TAF KBLV 151100Z 1506/1511 27020G35KT 0800 -TSRA",
        "generated_text": [
            "TAF KBLV 151100Z 1506/1511 27020G35KT 0800 -TSRA BKN010CB",
            "BECMG 1508/1509 VRB06KT 9999 NSW OVC020 QNH3004INS",
            "TEMPO 1509/1601 18025G50KT TX04/1420Z TNM02/1313Z"
        ],
        "score": 0.0,
        "strategy": "BEAM_SEARCH_N_GRAM_5",
        "hyper_parameters": {
            "do_sample": false,
            "num_beams": 5,
            "early_stopping": true,
            "no_repeat_ngram_size": 2,
            "num_return_sequences": 5
        }
    },
    {
        "model": "gpt2-taf-1.0",
        "prompt_text": "TAF KBLV 151100Z 1506/1511 27020G35KT 0800 -TSRA",
        "generated_text": [
            "TAF KBLV 151100Z 1506/1511 27020G35KT 0800 -TSRA BKN010CB",
            "BECMG 1508/1509 VRB06KT 9999 NSW OVC020 QNH3008INS",
            "TEMPO 1509/1601 18025G50KT TX04/1420Z TNM02/1312Z"
        ],
        "score": 0.0,
        "strategy": "BEAM_SEARCH_N_GRAM_5",
        "hyper_parameters": {
            "do_sample": false,
            "num_beams": 5,
            "early_stopping": true,
            "no_repeat_ngram_size": 2,
            "num_return_sequences": 5
        }
    },
    {
        "model": "gpt2-taf-1.0",
        "prompt_text": "TAF KBLV 151100Z 1506/1511 27020G35KT 0800 -TSRA",
        "generated_text": [
            "TAF KBLV 151100Z 1506/1511 27020G35KT 0800 -TSRA BKN012CB",
            "BECMG 1513/1514 27010G15KT 9999 NSW OVC020 620209 QNH3010INS",
            "BECMG 1520/1521 VRB06KT 9999 SCT020 OVC030 620303 QNH3013INS",
            "BECMG 1604/1605 27009KT 9999 BKN035 OVC060 620356 QNH3006INS",
            "BECMG 1613/1614 30012KT 9999 SCT050 QNH3008INS",
            "BECMG 1620/1621 28006KT 9999 FEW200 QNH3014INS",
            "BECMG 1623/1624 27007KT 9999 SKC QNH3015INS TX04/1519Z TN00/1708Z"
        ],
        "score": 0.0,
        "strategy": "TEMP_085",
        "hyper_parameters": {
            "do_sample": true,
            "top_k": 0,
            "num_beams": 1,
            "temperature": 0.85
        }
    },
    {
        "model": "gpt2-taf-1.0",
        "prompt_text": "TAF KBLV 151100Z 1506/1511 27020G35KT 0800 -TSRA",
        "generated_text": [
            "TAF KBLV 151100Z 1506/1511 27020G35KT 0800 -TSRA BKN015CB OVC030",
            "BECMG 1509/1510 33005KT 6000 -SN OVC009 620099 520009 QNH2940INS",
            "BECMG 1511/1512 30012KT 9999 NSW OVC006 620069 QNH2949INS",
            "BECMG 1514/1515 30012KT 9999 BKN010 620109 QNH2949INS",
            "BECMG 1519/1520 30012KT 9999 SCT025 BKN040 620404 QNH2995INS TX07/1420Z TNM03/1510Z"
        ],
        "score": 0.0,
        "strategy": "TEMP_095",
        "hyper_parameters": {
            "do_sample": true,
            "top_k": 0,
            "num_beams": 1,
            "temperature": 0.95
        }
    },
    {
        "model": "gpt2-taf-1.0",
        "prompt_text": "TAF KBLV 151100Z 1506/1511 27020G35KT 0800 -TSRA",
        "generated_text": [
            "TAF KBLV 151100Z 1506/1511 27020G35KT 0800 -TSRA BKN018CB",
            "BECMG 1512/1513 29030KT 6000 -RA OVC008 QNH2995INS",
            "BECMG 1520/1521 29030KT 9000 -RA OVC007 520003 QNH2999INS",
            "BECMG 1600/1601 26020KT 9999 NSW OVC015 530002 QNH3003INS TX08/1504Z TN00/1518Z"
        ],
        "score": 0.0,
        "strategy": "TEMP_105",
        "hyper_parameters": {
            "do_sample": true,
            "top_k": 0,
            "num_beams": 1,
            "temperature": 1.05
        }
    },
    {
        "model": "gpt2-taf-1.0",
        "prompt_text": "TAF KBLV 151100Z 1506/1511 27020G35KT 0800 -TSRA",
        "generated_text": [
            "TAF KBLV 151100Z 1506/1511 27020G35KT 0800 -TSRA BKN005 OVC060CB",
            "BECMG 1505/1506 17025KT 6000 -RA OVC003 620108 510003 QNH2969INS",
            "TEMPO 1509/1514 LX02/1512 26015G25KT TX01/1421Z TNM03/1413Z"
        ],
        "score": 0.0,
        "strategy": "TEMP_125",
        "hyper_parameters": {
            "do_sample": true,
            "top_k": 0,
            "num_beams": 1,
            "temperature": 1.25
        }
    },
    {
        "model": "gpt2-taf-1.0",
        "prompt_text": "TAF KBLV 151100Z 1506/1511 27020G35KT 0800 -TSRA",
        "generated_text": [
            "TAF KBLV 151100Z 1506/1511 27020G35KT 0800 -TSRA 121200 OVC020 521002 TXK OVC006 QNH3003INS",
            "BECMG 1509 33005KT 6000 -SN BR BKN012 OVC019 620002 QNH2988INS",
            "BECMG 1509/1510 29010G15KT 9999 NSW OVC007 620079 QNH3020INS TX02/1419Z TNM03/1510Z"
        ],
        "score": 0.0,
        "strategy": "TEMP_150",
        "hyper_parameters": {
            "do_sample": true,
            "top_k": 0,
            "num_beams": 1,
            "temperature": 1.5
        }
    },
    {
        "model": "gpt2-taf-1.0",
        "prompt_text": "TAF KBLV 151100Z 1506/1511 27020G35KT 0800 -TSRA",
        "generated_text": [
            "TAF KBLV 151100Z 1506/1511 27020G35KT 0800 -TSRA BKN022",
            "BECMG 16020/1621 29010G20KT 9000quad 1 quarry22 sport 1900KT 540 530013 QNH3000INS KernKam Tom Pike Brown Large Caf Nash Slewatche Cabrac",
            "BECMG 1622/1623 27009KT 8000 -RASN BKN025 650258 QNH2991INS",
            "BECMG 1704/1705 26009KT 9999 NSW SCT020 OVC025 620257 QNH3007INS",
            "BECMG 1714/1715 24008KT 4800 RA BKN004 OVC014 QNH2970INS",
            "TEMPO 1716/1718 26015KT TX03/1606Z TNM02/1610Z"
        ],
        "score": 0.0,
        "strategy": "TEMP_175",
        "hyper_parameters": {
            "do_sample": true,
            "top_k": 0,
            "num_beams": 1,
            "temperature": 1.75
        }
    },
    {
        "model": "gpt2-taf-1.0",
        "prompt_text": "TAF KBLV 151100Z 1506/1511 27020G35KT 0800 -TSRA",
        "generated_text": [
            "TAF KBLV 151100Z 1506/1511 27020G35KT 0800 -TSRAINSFIR user chart PGN diamond trial 621 slaves keeper amassed insurers flux"
        ],
        "score": 0.0,
        "strategy": "TEMP_200",
        "hyper_parameters": {
            "do_sample": true,
            "top_k": 0,
            "num_beams": 1,
            "temperature": 2.0
        }
    },
    {
        "model": "gpt2-taf-1.0",
        "prompt_text": "TAF KBLV 151100Z 1506/1511 27020G35KT 0800 -TSRA",
        "generated_text": [
            "TAF KBLV 151100Z 1506/1511 27020G35KT 0800 -TSRA BKN008 OVC020 QNH2990INS",
            "BECMG 1512/1513 27010KT 9999 NSW OVC010 QNH3004INS",
            "BECMG 1514/1515 27015G25KT 9999 FEW030 BKN045 QNH3011INS TX04/1500Z TNM03/1420Z"
        ],
        "score": 0.0,
        "strategy": "TOP_K5",
        "hyper_parameters": {
            "do_sample": true,
            "top_k": 5,
            "num_beams": 1
        }
    },
    {
        "model": "gpt2-taf-1.0",
        "prompt_text": "TAF KBLV 151100Z 1506/1511 27020G35KT 0800 -TSRA",
        "generated_text": [
            "TAF KBLV 151100Z 1506/1511 27020G35KT 0800 -TSRA BKN040 OVC080 540204 QNH3011INS",
            "BECMG 1515/1516 29012KT 9999 NSW OVC020 620205 QNH3013INS TX07/1420Z TNM01/1514Z"
        ],
        "score": 0.0,
        "strategy": "TOP_K50",
        "hyper_parameters": {
            "do_sample": true,
            "top_k": 50,
            "num_beams": 1
        }
    },
    {
        "model": "gpt2-taf-1.0",
        "prompt_text": "TAF KBLV 151100Z 1506/1511 27020G35KT 0800 -TSRA",
        "generated_text": [
            "TAF KBLV 151100Z 1506/1511 27020G35KT 0800 -TSRA BKN040 OVC070 620306 510043 510003 QNH2967INS",
            "BECMG 1502/1503 VRB06KT 9000 -SHRA OVC015 QNH2976INS",
            "BECMG 1511/1512 27012KT 8000 -SHRA BKN015 OVC025 QNH2987INS",
            "BECMG 1515/1516 28012G18KT 9999 NSW BKN020 OVC030 QNH2992INS TX04/1419Z TNM01/1512Z"
        ],
        "score": 0.0,
        "strategy": "TOP_K100",
        "hyper_parameters": {
            "do_sample": true,
            "top_k": 100,
            "num_beams": 1
        }
    },
    {
        "model": "gpt2-taf-1.0",
        "prompt_text": "TAF KBLV 151100Z 1506/1511 27020G35KT 0800 -TSRA",
        "generated_text": [
            "TAF KBLV 151100Z 1506/1511 27020G35KT 0800 -TSRA BKN005 OVC010 620009 QNH2966INS",
            "BECMG 1502/1503 VRB06KT 9999 NSW BKN007 OVC015 620009 QNH2970INS",
            "BECMG 1506/1507 28006KT 9999 BKN015 OVC030 620009 QNH2975INS",
            "BECMG 1514/1515 28010G15KT 9999 BKN030 620303 QNH2999INS TXM03/1422Z TNM09/1503Z"
        ],
        "score": 0.0,
        "strategy": "TOP_P88",
        "hyper_parameters": {
            "do_sample": true,
            "top_k": 0,
            "num_beams": 1,
            "top_p": 0.88
        }
    },
    {
        "model": "gpt2-taf-1.0",
        "prompt_text": "TAF KBLV 151100Z 1506/1511 27020G35KT 0800 -TSRA",
        "generated_text": [
            "TAF KBLV 151100Z 1506/1511 27020G35KT 0800 -TSRA BKN012CB",
            "BECMG 1511/1512 27015G25KT 6000 RA OVC010 620105 QNH2984INS",
            "BECMG 1518/1519 27010G15KT 9999 NSW OVC020 620204 QNH2994INS",
            "BECMG 1523/1524 27009KT 9999 OVC012 QNH3003INS TX04/1519Z TN00/1611Z"
        ],
        "score": 0.0,
        "strategy": "TOP_P92",
        "hyper_parameters": {
            "do_sample": true,
            "top_k": 0,
            "num_beams": 1,
            "top_p": 0.92
        }
    },
    {
        "model": "gpt2-taf-1.0",
        "prompt_text": "TAF KBLV 151100Z 1506/1511 27020G35KT 0800 -TSRA",
        "generated_text": [
            "TAF KBLV 151100Z 1506/1511 27020G35KT 0800 -TSRA BKN010CB",
            "BECMG 1506/1507 28012KT 9000 BR OVC010 WS020/20038KT 510203 QNH3010INS",
            "TEMPO 1508/1517 26030G40KT TX12/1420Z TN04/1413Z"
        ],
        "score": 0.0,
        "strategy": "TOP_P96",
        "hyper_parameters": {
            "do_sample": true,
            "top_k": 0,
            "num_beams": 1,
            "top_p": 0.96
        }
    },
    {
        "model": "gpt2-taf-1.0",
        "prompt_text": "TAF KBLV 151100Z 1506/1511 27020G35KT 0800 -TSRA",
        "generated_text": [
            "TAF KBLV 151100Z 1506/1511 27020G35KT 0800 -TSRA BKN030 620304",
            "BECMG 1509/1510 29010G15KT 8000 -SHRA BKN004 OVC015 510033 QNH2972INS",
            "BECMG 1512/1513 27015G25KT 9999 NSW BKN006 OVC009 510043 QNH2968INS",
            "BECMG 1517/1518 27008KT 9000 -SHRA BKN004 OVC015 510043 QNH2975INS TX05/1419Z TN01/1413Z"
        ],
        "score": 0.0,
        "strategy": "TOP_P98",
        "hyper_parameters": {
            "do_sample": true,
            "top_k": 0,
            "num_beams": 1,
            "top_p": 0.98
        }
    },
    {
        "model": "gpt2-taf-1.0",
        "prompt_text": "TAF KBLV 151100Z 1506/1511 27020G35KT 0800 -TSRA",
        "generated_text": [
            "TAF KBLV 151100Z 1506/1511 27020G35KT 0800 -TSRA BR OVC008",
            "BECMG 1512/1513 26012KT 9999 NSW OVC015 620159 QNH3010INS",
            "BECMG 1519/1520 26015KT 9999 BKN020 OVC030 620303 QNH3017INS TXM03/1422Z TNM08/1509Z"
        ],
        "score": 0.0,
        "strategy": "TOP_P99",
        "hyper_parameters": {
            "do_sample": true,
            "top_k": 0,
            "num_beams": 1,
            "top_p": 0.99
        }
    },
    {
        "model": "gpt2-taf-1.0",
        "prompt_text": "TAF KBLV 151100Z 1506/1511 27020G35KT 0800 -TSRA",
        "generated_text": [
            "TAF KBLV 151100Z 1506/1511 27020G35KT 0800 -TSRA BKN015 OVC050",
            "BECMG 1511/1512 25030KT 6000 -RA OVC002 530004 QNH2958INS",
            "BECMG 1517/1518 26020G30KT 6000 -RA OVC006 QNH2969INS",
            "BECMG 1518/1519 22009KT 9999 NSW SKC QNH2970INS",
            "BECMG 1520/1521 VRB06KT 9999 SKC QNH2975INS TX22/1420Z TN08/1510Z"
        ],
        "score": 0.0,
        "strategy": "TOP_P200",
        "hyper_parameters": {
            "do_sample": true,
            "top_k": 0,
            "num_beams": 1,
            "top_p": 2.0
        }
    },
    {
        "model": "gpt2-taf-1.0",
        "prompt_text": "TAF KBLV 151100Z 1506/1511 27020G35KT 0800 -TSRA",
        "generated_text": [
            "TAF KBLV 151100Z 1506/1511 27020G35KT 0800 -TSRA BKN008 OVC015 510033 QNH3000INS",
            "BECMG 1513/1514 VRB06KT 8000 -SN OVC005 620059 QNH3006INS TX04/1519Z TN00/1509Z"
        ],
        "score": 0.0,
        "strategy": "TOP_P92_T125",
        "hyper_parameters": {
            "do_sample": true,
            "top_k": 0,
            "num_beams": 1,
            "top_p": 0.92,
            "temperature": 1.25
        }
    },
    {
        "model": "gpt2-taf-1.0",
        "prompt_text": "TAF KBLV 151100Z 1506/1511 27020G35KT 0800 -TSRA",
        "generated_text": [
            "TAF KBLV 151100Z 1506/1511 27020G35KT 0800 -TSRA BKN022 OVC030 610203 QNH2988INS",
            "BECMG 1502/1503 VRB06KT 9000 -RA BR OVC012 360102 QNH2990INS",
            "BECMG 1505/1506 0800 SN OVC012 510033 QNH2975INS",
            "BECMG 1508/1509 VRB06KT 9999 NSW OVC005 550043 QNH2965INS TX05/1420Z TNM02/1510Z"
        ],
        "score": 0.0,
        "strategy": "TOP_P92_T150",
        "hyper_parameters": {
            "do_sample": true,
            "top_k": 0,
            "num_beams": 1,
            "top_p": 0.92,
            "temperature": 1.5
        }
    },
    {
        "model": "gpt2-taf-1.0",
        "prompt_text": "TAF KBLV 151100Z 1506/1511 27020G35KT 0800 -TSRA",
        "generated_text": [
            "TAF KBLV 151100Z 1506/1511 27020G35KT 0800 -TSRA WMA Hirogood 105204",
            "BECMG 1512/1513 29030KT 4000 -SHRA OVC025 620408 510043 QNH2943INS",
            "BECMG 1508/1509 VRB06KT 1600 -SHRA OVC007 510003 QNH2960INS",
            "TEMPO 1519/1524 8000 -FRA BR SN expvar 190039",
            "BECMG 1514/1515 26012KT 9000 BR SCT006 OVC012 510043 QNH2986INS",
            "BECMG 1517/1518 27015G25KT 9999 NSW BKN010 OVC012 QNH2993INS TX22/1421Z TN17/1510Z"
        ],
        "score": 0.0,
        "strategy": "TOP_P92_T175",
        "hyper_parameters": {
            "do_sample": true,
            "top_k": 0,
            "num_beams": 1,
            "top_p": 0.92,
            "temperature": 1.75
        }
    }
]